{"type":"FeatureCollection","features":[{"type":"Feature","properties":{"id":"DEU:DE1","name":"Baden-Württemberg"},"geometry":{"type":"MultiPolygon","coordinates":[[[[9.800994498000023,49.69547344800003],[9.940450030000022,49.49829137100005],[10.083723500000076,49.54356099900008],[10.11832750000002,49.47316949900005],[10.111966500000051,49.38491049900006],[10.133019477000062,49.22788699400007],[10.256763500000034,49.05949499900004],[10.409849500000064,48.97743549900008],[10.423689,48.74449599900004],[10.487258,48.69666199900007],[10.395140837000042,48.66196116400005],[10.276284936000025,48.68653769700006],[10.278248500000075,48.51610149900006],[10.23077950000004,48.510510999000076],[10.133895500000051,48.454871499000035],[10.032694500000048,48.45719649900008],[9.997606,48.35011799900008],[10.095357500000034,48.164014999000074],[10.136457,48.10845949900005],[10.104207,47.97435849900006],[10.110136500000067,47.93714999900004],[10.131928500000072,47.82008749900007],[10.06632131400005,47.66731240200005],[9.692151500000023,47.610423499000035],[9.55872050000005,47.54189299900003],[9.495604,47.55145499900004],[9.364413481000042,47.628061915000046],[9.182192,47.655890499000066],[8.873873425000056,47.66731240200005],[8.84141835400004,47.702477567000074],[8.795708500000046,47.67559549900005],[8.670461,47.684862499000076],[8.663354,47.68589249900003],[8.689697529000057,47.74218423800005],[8.61383150000006,47.801078999000026],[8.510115,47.77619049900005],[8.424319941000022,47.66621868500005],[8.498444862000042,47.64780342600005],[8.607268175000058,47.66731240200005],[8.426434500000028,47.56754899900005],[7.894107500000075,47.58637499900004],[7.713784500000031,47.539404999000055],[7.634097,47.561113499000044],[7.589039,47.589877999000066],[7.51984649700006,47.66731240200005],[7.545990500000073,47.743573999000034],[7.60252679000007,47.96768608100007],[7.577291,48.11565499900007],[7.577919500000064,48.12139199900008],[7.680713,48.25726699900008],[7.822504210000034,48.60837369400008],[7.95963050000006,48.71858099900004],[8.232633,48.966571499000054],[8.261284,48.980916999000044],[8.277349,48.98993899900006],[8.33997,49.08014999900007],[8.413072500000055,49.249816499000076],[8.466985500000021,49.28297549900003],[8.487268,49.29002649900008],[8.47928661700007,49.36635080100007],[8.497316,49.411346999000045],[8.472505500000068,49.44351349900006],[8.423068,49.54182099900004],[8.422700500000076,49.57419249900005],[8.422439500000053,49.58338549900003],[8.581375,49.519780499000035],[8.662906758000076,49.59263811900007],[8.800891676000049,49.48234365600007],[8.93188,49.47063699900008],[9.08206258100006,49.525949007000065],[9.103006,49.57745599900005],[9.165176248000023,49.57621230600006],[9.41092,49.663507999000046],[9.368423844000063,49.762710499000036],[9.471497500000055,49.77972649900005],[9.648736,49.79147749900005],[9.645501197000044,49.71938217300004],[9.800994498000023,49.69547344800003]]]]}},{"type":"Feature","properties":{"id":"DEU:DE2","name":"Bayern"},"geometry":{"type":"MultiPolygon","coordinates":[[[[10.589591350000035,50.31985615800005],[10.610115,50.22799499900003],[10.729202,50.23000549900007],[10.829974468000046,50.26078860600006],[10.74247207600007,50.36243878600004],[10.945718500000055,50.38646649900005],[11.189943,50.27118549900007],[11.264968572000043,50.39707601100008],[11.265938,50.47942099900007],[11.373521139000047,50.51220343500006],[11.481568,50.43162149900007],[11.604540038000039,50.39707601100008],[11.919323,50.42472799900003],[12.100900500000023,50.31802799900004],[12.160679,50.21984899900008],[12.260799,50.05815649900006],[12.550988500000074,49.905087999000045],[12.401524,49.75837299900007],[12.593778500000042,49.54219149900007],[12.63765965600004,49.51946123100004],[12.633763500000043,49.47619499900003],[12.792463181000073,49.357913084000074],[12.984562468000036,49.322802024000055],[13.170908,49.17357949900003],[13.365593095000065,49.067106254000066],[13.416651500000057,48.98003549900005],[13.551578500000062,48.96778749900005],[13.839507,48.77160499900003],[13.796107,48.71360049900005],[13.808444017000056,48.61126031400005],[13.727090500000031,48.51301949900005],[13.513369500000067,48.590977999000074],[13.438430500000038,48.54889499900003],[13.39324076400004,48.372187421000035],[13.177043,48.29438999900003],[12.94468450000005,48.20669249900004],[12.751555,48.112810499000034],[12.860181500000067,47.99663999900008],[12.875785500000063,47.962608999000054],[12.983291907000023,47.86263494200006],[12.929350502000034,47.734071132000054],[13.078709892000063,47.66731240200005],[13.046055500000023,47.52050249900003],[12.922757854000054,47.50197557200005],[12.695795500000031,47.68222299900003],[12.599091658000077,47.66731240200005],[12.575026500000035,47.63231599900007],[12.500149563000036,47.63081876600006],[12.452545032000046,47.66731240200005],[12.338045500000021,47.69708749900008],[12.200350248000063,47.70595439700003],[12.182388959000036,47.66731240200005],[12.169276953000065,47.62105118900007],[12.060662,47.61874349900006],[11.632883,47.59244599900006],[11.560689436000075,47.521285402000046],[11.410219,47.49532399900005],[11.42142750000005,47.444851999000036],[11.016500500000063,47.39636799900006],[10.991202500000043,47.396130999000036],[10.886199,47.53684799900003],[10.454439,47.55579699900005],[10.43481149400003,47.39792764500004],[10.178353,47.270113999000046],[10.197797789000049,47.367581904000076],[10.11432506400007,47.374270187000036],[9.999526,47.48301699900003],[9.967813500000034,47.54624049900008],[9.55872050000005,47.54189299900003],[9.692151500000023,47.610423499000035],[10.06632131400005,47.66731240200005],[10.131928500000072,47.82008749900007],[10.110136500000067,47.93714999900004],[10.104207,47.97435849900006],[10.136457,48.10845949900005],[10.095357500000034,48.164014999000074],[9.997606,48.35011799900008],[10.032694500000048,48.45719649900008],[10.133895500000051,48.454871499000035],[10.23077950000004,48.510510999000076],[10.278248500000075,48.51610149900006],[10.276284936000025,48.68653769700006],[10.395140837000042,48.66196116400005],[10.487258,48.69666199900007],[10.423689,48.74449599900004],[10.409849500000064,48.97743549900008],[10.256763500000034,49.05949499900004],[10.133019477000062,49.22788699400007],[10.111966500000051,49.38491049900006],[10.11832750000002,49.47316949900005],[10.083723500000076,49.54356099900008],[9.940450030000022,49.49829137100005],[9.800994498000023,49.69547344800003],[9.645501197000044,49.71938217300004],[9.648736,49.79147749900005],[9.471497500000055,49.77972649900005],[9.368423844000063,49.762710499000036],[9.41092,49.663507999000046],[9.165176248000023,49.57621230600006],[9.103006,49.57745599900005],[9.127117102000057,49.74205876000008],[9.036080500000025,49.84650399900005],[9.05008,49.86631499900005],[9.016088500000023,49.991340499000046],[8.99056,50.06711899900006],[9.165176248000023,50.10605306000008],[9.270941022000045,50.14205011900003],[9.404984500000069,50.08773449900008],[9.51161122800005,50.12236128200004],[9.519079673000022,50.21800801100005],[9.623151,50.229039999000065],[9.73291450000005,50.356149499000026],[9.935655,50.419606499000054],[10.041338500000052,50.51646949900004],[10.216964401000041,50.53211020900005],[10.45417136900005,50.39707601100008],[10.589591350000035,50.31985615800005]]]]}},{"type":"Feature","properties":{"id":"DEU:DE3","name":"Berlin"},"geometry":{"type":"MultiPolygon","coordinates":[[[[13.610827500000028,52.54423549900008],[13.66698,52.47416699900003],[13.723263691000056,52.43658333500008],[13.699738,52.377882999000065],[13.420985,52.376246999000045],[13.311926,52.399185499000055],[13.165898,52.39427549900006],[13.109412838000026,52.428361109000036],[13.13900626000003,52.50205882300003],[13.164263,52.59890049900008],[13.39854,52.648194499000056],[13.610827500000028,52.54423549900008]]]]}},{"type":"Feature","properties":{"id":"DEU:DE4","name":"Brandenburg"},"geometry":{"type":"MultiPolygon","coordinates":[[[[14.205543695000074,53.42452451100007],[14.175109730000031,53.26827037100003],[14.412157,53.32963599900006],[14.430958340000075,53.260491295000065],[14.377725916000031,53.20144491500008],[14.342189020000035,53.06349634800006],[14.143658,52.96136849900006],[14.156692,52.895590999000035],[14.15437257700006,52.83887581400006],[14.436438,52.67990049900004],[14.565063,52.62449699900003],[14.629749920000052,52.52212171300005],[14.534362,52.39500799900003],[14.600891500000046,52.27205199900004],[14.695763792000037,52.22866335500004],[14.755227,52.070024999000054],[14.716716,52.00118799900008],[14.614158025000052,51.826395509000065],[14.740611450000074,51.66494066200005],[14.729862,51.581776999000056],[14.447771,51.54206899900004],[14.163324500000044,51.54104299900007],[14.030393885000024,51.42335019700005],[13.835313,51.37678999900004],[13.691250500000024,51.37401299900006],[13.395382296000037,51.44205537500005],[13.21015,51.40473599900008],[13.176731053000026,51.56365019300006],[13.051025,51.647676999000055],[13.150917029000027,51.70956685400006],[13.150913500000058,51.85961049900004],[12.769780500000024,51.97927449900004],[12.376122500000065,52.045119499000066],[12.276724500000057,52.104017999000064],[12.236253773000044,52.17559335000004],[12.31718,52.45409549900006],[12.171555,52.50633649900004],[12.249203500000021,52.79186199900005],[12.12681150000003,52.89019949900006],[11.91460117500003,52.89539969300006],[11.597784500000046,53.03592649900003],[11.265732,53.12197799900008],[11.512707601000045,53.135569633000046],[11.55918907900002,53.20144491500008],[11.649235236000038,53.241365478000034],[11.778981841000075,53.22779988000008],[12.07027705400003,53.339494553000065],[12.325101500000073,53.32130149900007],[12.331751500000053,53.31801099900008],[12.741909186000044,53.20144491500008],[12.777132736000056,53.18876732500007],[12.844290647000037,53.198578920000045],[12.879300442000044,53.18262761500006],[12.920159901000034,53.193722828000034],[12.984683,53.16498549900007],[13.241403500000047,53.23240099900005],[13.432631744000048,53.26935251800006],[13.710065500000042,53.479062499000065],[13.844161757000052,53.50656270700006],[13.972805678000043,53.42613839200004],[14.205543695000074,53.42452451100007]],[[13.109412838000026,52.428361109000036],[13.165898,52.39427549900006],[13.311926,52.399185499000055],[13.420985,52.376246999000045],[13.699738,52.377882999000065],[13.723263691000056,52.43658333500008],[13.66698,52.47416699900003],[13.610827500000028,52.54423549900008],[13.39854,52.648194499000056],[13.164263,52.59890049900008],[13.13900626000003,52.50205882300003],[13.109412838000026,52.428361109000036]]]]}},{"type":"Feature","properties":{"id":"DEU:DE5","name":"Bremen"},"geometry":{"type":"MultiPolygon","coordinates":[[[[8.984185500000024,53.126070999000035],[8.915827,53.01102149900004],[8.711424,53.04462999900005],[8.654898500000058,53.10886449900005],[8.485330500000032,53.22711999900008],[8.58510564900007,53.20144491500008],[8.984185500000024,53.126070999000035]]],[[[8.645036917000027,53.52622753300005],[8.492652,53.47241999900007],[8.554898,53.525130999000055],[8.520410500000025,53.606204999000056],[8.609402201000023,53.58563126000007],[8.645036917000027,53.52622753300005]]]]}},{"type":"Feature","properties":{"id":"DEU:DE6","name":"Hamburg"},"geometry":{"type":"MultiPolygon","coordinates":[[[[10.307954,53.433200999000064],[9.92379799300005,53.420998747000056],[9.768861,53.50527899900004],[9.730104,53.55758099900004],[9.945376,53.65292799900004],[10.072805,53.70963399900006],[10.168447086000072,53.681768281000075],[10.17859326100006,53.534967341000026],[10.236678500000039,53.49635449900006],[10.307954,53.433200999000064]]],[[[8.527494317000048,53.99859828700005],[8.45585834600007,53.90612561000006],[8.37545152000007,53.92993719300006],[8.46512507600005,54.01646080000006],[8.527494317000048,53.99859828700005]]]]}},{"type":"Feature","properties":{"id":"DEU:DE7","name":"Hessen"},"geometry":{"type":"MultiPolygon","coordinates":[[[[9.61073946700003,51.521852953000064],[9.587190329000066,51.36621990800006],[9.732304500000055,51.295231999000066],[9.798745046000022,51.39071683800006],[9.928339,51.37529899900005],[9.986171155000022,51.29300327300007],[10.206942,51.190648999000075],[10.210013,51.144082999000034],[10.162293291000026,51.010419951000074],[10.021558500000026,50.992949499000076],[10.036739684000054,50.866849968000054],[9.926176500000054,50.767389999000045],[9.900994413000035,50.65500510100003],[10.077555500000074,50.63762399900003],[10.041338500000052,50.51646949900004],[9.935655,50.419606499000054],[9.73291450000005,50.356149499000026],[9.623151,50.229039999000065],[9.519079673000022,50.21800801100005],[9.51161122800005,50.12236128200004],[9.404984500000069,50.08773449900008],[9.270941022000045,50.14205011900003],[9.165176248000023,50.10605306000008],[8.99056,50.06711899900006],[9.016088500000023,49.991340499000046],[9.05008,49.86631499900005],[9.036080500000025,49.84650399900005],[9.127117102000057,49.74205876000008],[9.103006,49.57745599900005],[9.08206258100006,49.525949007000065],[8.93188,49.47063699900008],[8.800891676000049,49.48234365600007],[8.662906758000076,49.59263811900007],[8.581375,49.519780499000035],[8.422439500000053,49.58338549900003],[8.414774,49.59505199900008],[8.379929982000021,49.686947254000074],[8.44637750000004,49.73079949900006],[8.448365,49.73366149900005],[8.400055,49.803674999000066],[8.343030500000054,49.94050599900004],[8.288245,49.995133999000075],[8.190038500000071,50.03529599900003],[8.175135500000067,50.03425549900004],[7.908535993000044,49.97860558000008],[7.773997,50.06653999900004],[8.121913500000062,50.277224999000055],[8.022736638000026,50.39707601100008],[7.954074013000024,50.39707601100008],[8.012284646000069,50.52722357700003],[8.151592,50.59937099900003],[8.125776500000029,50.68581399900006],[8.173909944000059,50.81704425700008],[8.355496,50.86200099900003],[8.477892,50.969047499000055],[8.549085,51.101867999000035],[8.700376110000036,51.14746724500003],[8.725583401000051,51.21235494000007],[8.671073389000071,51.312749834000044],[8.88728347600005,51.39254639500007],[8.970653500000026,51.506773499000076],[9.165176248000023,51.452832210000054],[9.440457,51.65039399900007],[9.685331,51.582016499000076],[9.61073946700003,51.521852953000064]]]]}},{"type":"Feature","properties":{"id":"DEU:DE8","name":"Mecklenburg-Vorpommern"},"geometry":{"type":"MultiPolygon","coordinates":[[[[13.324393874000066,54.65127143300003],[13.457479294000052,54.49479981500008],[13.552165693000063,54.56935165400006],[13.640235681000036,54.56089151400005],[13.563670847000026,54.45806315400006],[13.662012988000072,54.35160192200004],[13.384731801000044,54.281973150000056],[13.319396,54.19350599900008],[13.476296987000069,54.11206482600005],[13.816977880000024,54.159495537000055],[13.958608759000072,53.99223469700007],[14.098978456000054,53.99668024200008],[14.226302,53.928652999000064],[14.213077500000054,53.866479499000036],[14.065408149000064,53.87273588900007],[13.908686814000077,53.84244186800004],[13.972370769000065,53.77695081000007],[14.269118727000034,53.698693277000075],[14.412157,53.32963599900006],[14.175109730000031,53.26827037100003],[14.205543695000074,53.42452451100007],[13.972805678000043,53.42613839200004],[13.844161757000052,53.50656270700006],[13.710065500000042,53.479062499000065],[13.432631744000048,53.26935251800006],[13.241403500000047,53.23240099900005],[12.984683,53.16498549900007],[12.920159901000034,53.193722828000034],[12.879300442000044,53.18262761500006],[12.844290647000037,53.198578920000045],[12.777132736000056,53.18876732500007],[12.741909186000044,53.20144491500008],[12.331751500000053,53.31801099900008],[12.325101500000073,53.32130149900007],[12.07027705400003,53.339494553000065],[11.778981841000075,53.22779988000008],[11.649235236000038,53.241365478000034],[11.55918907900002,53.20144491500008],[11.512707601000045,53.135569633000046],[11.265732,53.12197799900008],[11.171861500000034,53.15664399900004],[11.137517750000029,53.20144491500008],[10.96292278900006,53.33436830800008],[10.595047,53.363927499000056],[10.951918500000033,53.64762249900008],[10.782266690000029,53.74212887200008],[10.762964500000066,53.81115299900006],[10.903661500000055,53.956821999000056],[11.154126821000034,54.01049390800006],[11.326976310000077,53.947777349000035],[11.56177850000006,54.028088499000035],[11.65410752300005,54.13122824900006],[11.778981841000075,54.14991917000003],[11.998484500000075,54.17496999900004],[12.201068,54.244695499000045],[12.28553050000005,54.27495199900005],[12.45606766900005,54.316825479000045],[12.536977533000027,54.44465067700003],[12.767995678000034,54.36834883100005],[12.964218932000051,54.42793734300005],[13.183265025000026,54.38705965400004],[13.209893488000034,54.54644665900008],[13.324393874000066,54.65127143300003]]]]}},{"type":"Feature","properties":{"id":"DEU:DE9","name":"Niedersachsen"},"geometry":{"type":"MultiPolygon","coordinates":[[[[8.798989191000032,53.838148481000076],[9.018512500000043,53.83484099900005],[9.272733,53.86766249900006],[9.48589,53.70766449900003],[9.730104,53.55758099900004],[9.768861,53.50527899900004],[9.92379799300005,53.420998747000056],[10.307954,53.433200999000064],[10.469184,53.38584399900003],[10.595047,53.363927499000056],[10.96292278900006,53.33436830800008],[11.137517750000029,53.20144491500008],[11.171861500000034,53.15664399900004],[11.265732,53.12197799900008],[11.597784500000046,53.03592649900003],[11.505027,52.94103249900007],[10.841556,52.85220499900004],[10.759314500000073,52.79583049900003],[11.008781500000055,52.49674749900004],[10.934542500000077,52.47179499900005],[11.051056437000057,52.37008322300005],[11.036816248000036,52.16327780600005],[10.964414500000032,52.056642999000076],[10.801489,52.04799699900008],[10.561227,52.004065999000034],[10.701372,51.642187499000045],[10.677283,51.63837599900006],[10.488551,51.57477849900005],[10.380029808000074,51.57562148300008],[10.265768360000038,51.48460944800007],[9.928339,51.37529899900005],[9.798745046000022,51.39071683800006],[9.732304500000055,51.295231999000066],[9.587190329000066,51.36621990800006],[9.61073946700003,51.521852953000064],[9.685331,51.582016499000076],[9.440457,51.65039399900007],[9.417317500000024,51.64726949900006],[9.427754315000072,51.82231260600008],[9.323343500000021,51.855060999000045],[9.308893,51.92271949900004],[9.165176248000023,52.08919848200003],[8.98583350000007,52.19459849900005],[8.996949071000074,52.305397869000046],[9.125252500000045,52.41199349900006],[9.071724748000065,52.48776413000007],[8.925041045000057,52.40819275700005],[8.740156648000038,52.400723576000075],[8.703009,52.50043799900004],[8.297213500000055,52.45649799900008],[8.466186500000049,52.26761399900005],[8.410586500000022,52.11511499900007],[8.096448,52.05714499900006],[7.885159,52.08330249900007],[7.990631608000058,52.12791353800003],[7.924675439000055,52.20936213900006],[7.956465,52.27249049900007],[7.964625500000068,52.32485849900007],[7.608038500000021,52.47401599900007],[7.540665789000059,52.36826139100003],[7.317481,52.280271999000036],[7.099149,52.24305849900003],[7.065685,52.24137299900008],[7.009998916000029,52.43915720700005],[6.697865500000034,52.486285999000074],[6.70973250000003,52.627823499000044],[7.006229500000074,52.63876299900005],[7.092692,52.83820099900004],[7.197102208000047,52.981636741000045],[7.202794500000039,53.11328149900004],[7.217469140000048,53.20144491500008],[7.208935,53.24306449900007],[7.2643,53.325526499000034],[7.044732475000046,53.33721088300007],[6.999446500000033,53.35988749900008],[7.11351088300006,53.583731630000045],[7.271310948000064,53.701237578000075],[7.550173,53.67503749900004],[7.809895500000039,53.70766199900004],[7.996700715000031,53.70301416500007],[8.091291,53.63810899900005],[8.154662435000034,53.53596516600004],[8.061327,53.505956999000034],[8.195555,53.40917149900008],[8.296486282000046,53.454216882000026],[8.244817410000053,53.544403568000064],[8.288529956000048,53.59959849900008],[8.554898,53.525130999000055],[8.492652,53.47241999900007],[8.645036917000027,53.52622753300005],[8.609402201000023,53.58563126000007],[8.520410500000025,53.606204999000056],[8.536843579000049,53.79043934800006],[8.687172500000031,53.89190799900007],[8.798989191000032,53.838148481000076]],[[8.711424,53.04462999900005],[8.915827,53.01102149900004],[8.984185500000024,53.126070999000035],[8.58510564900007,53.20144491500008],[8.485330500000032,53.22711999900008],[8.654898500000058,53.10886449900005],[8.711424,53.04462999900005]]],[[[6.930503093000027,53.684513311000046],[6.903872651000029,53.58823138200006],[6.840839148000043,53.62335561700007],[6.809191596000062,53.67931934200004],[6.848968290000073,53.699006060000045],[6.930503093000027,53.684513311000046]]],[[[6.751453668000067,53.63516844000003],[6.790050961000077,53.543680632000076],[6.657427111000061,53.55872785300005],[6.63848002900005,53.59210563200003],[6.751453668000067,53.63516844000003]]]]}},{"type":"Feature","properties":{"id":"DEU:DEA","name":"Nordrhein-Westfalen"},"geometry":{"type":"MultiPolygon","coordinates":[[[[8.703009,52.50043799900004],[8.740156648000038,52.400723576000075],[8.925041045000057,52.40819275700005],[9.071724748000065,52.48776413000007],[9.125252500000045,52.41199349900006],[8.996949071000074,52.305397869000046],[8.98583350000007,52.19459849900005],[9.165176248000023,52.08919848200003],[9.308893,51.92271949900004],[9.323343500000021,51.855060999000045],[9.427754315000072,51.82231260600008],[9.417317500000024,51.64726949900006],[9.440457,51.65039399900007],[9.165176248000023,51.452832210000054],[8.970653500000026,51.506773499000076],[8.88728347600005,51.39254639500007],[8.671073389000071,51.312749834000044],[8.725583401000051,51.21235494000007],[8.700376110000036,51.14746724500003],[8.549085,51.101867999000035],[8.477892,50.969047499000055],[8.355496,50.86200099900003],[8.173909944000059,50.81704425700008],[8.125776500000029,50.68581399900006],[8.03969,50.69737549900003],[7.851496,50.92583249900008],[7.785898,50.939913999000055],[7.661003500000049,50.82036449900005],[7.440772,50.711437999000054],[7.21239950000006,50.62340499900006],[6.927901,50.55861849900003],[6.890894314000036,50.48554470600004],[6.774385060000043,50.459699338000064],[6.77094317600006,50.39707601100008],[6.800711500000034,50.361781499000074],[6.601616849000038,50.380683160000046],[6.425295,50.32301199900007],[6.405028500000071,50.32330849900006],[6.315556,50.49704249900003],[6.192200500000069,50.521055499000056],[6.189312500000028,50.56609399900003],[6.20862405500003,50.633562977000054],[6.020999,50.75429549900008],[6.086947500000065,50.91313499900008],[5.877085,51.03210099900008],[6.174812,51.18451349900005],[6.072657,51.24258749900008],[6.224405,51.36497899900007],[6.19519294600002,51.51880602700004],[5.953192,51.74784599900005],[6.005513898000061,51.83155995000004],[6.167766,51.90080449900006],[6.407779500000061,51.82809199900004],[6.778588508000041,51.93648995600006],[6.730869647000077,52.05062442900004],[6.760465,52.118569499000046],[7.065685,52.24137299900008],[7.099149,52.24305849900003],[7.317481,52.280271999000036],[7.540665789000059,52.36826139100003],[7.608038500000021,52.47401599900007],[7.964625500000068,52.32485849900007],[7.956465,52.27249049900007],[7.924675439000055,52.20936213900006],[7.990631608000058,52.12791353800003],[7.885159,52.08330249900007],[8.096448,52.05714499900006],[8.410586500000022,52.11511499900007],[8.466186500000049,52.26761399900005],[8.297213500000055,52.45649799900008],[8.703009,52.50043799900004]]]]}},{"type":"Feature","properties":{"id":"DEU:DEB","name":"Rheinland-Pfalz"},"geometry":{"type":"MultiPolygon","coordinates":[[[[8.012284646000069,50.52722357700003],[7.954074013000024,50.39707601100008],[8.022736638000026,50.39707601100008],[8.121913500000062,50.277224999000055],[7.773997,50.06653999900004],[7.908535993000044,49.97860558000008],[8.175135500000067,50.03425549900004],[8.190038500000071,50.03529599900003],[8.288245,49.995133999000075],[8.343030500000054,49.94050599900004],[8.400055,49.803674999000066],[8.448365,49.73366149900005],[8.44637750000004,49.73079949900006],[8.379929982000021,49.686947254000074],[8.414774,49.59505199900008],[8.422439500000053,49.58338549900003],[8.422700500000076,49.57419249900005],[8.423068,49.54182099900004],[8.472505500000068,49.44351349900006],[8.497316,49.411346999000045],[8.47928661700007,49.36635080100007],[8.487268,49.29002649900008],[8.466985500000021,49.28297549900003],[8.413072500000055,49.249816499000076],[8.33997,49.08014999900007],[8.277349,48.98993899900006],[8.261284,48.980916999000044],[8.232633,48.966571499000054],[8.068407500000035,48.99931649900003],[7.910654500000021,49.04516349900007],[7.635651,49.05395049900005],[7.481843187000038,49.15629860100006],[7.36875550000002,49.16145799900005],[7.320341,49.18949899900008],[7.309481252000069,49.23976484500008],[7.394494,49.31635199900006],[7.402075500000024,49.367718499000034],[7.395898500000044,49.37204599900008],[7.292601500000046,49.40822249900003],[7.252589,49.43146549900007],[7.27662250000003,49.54862349900003],[7.02798,49.63943849900005],[6.891454,49.61342249900008],[6.609608402000049,49.52834879000005],[6.365096101000063,49.53950953100008],[6.482408583000051,49.72054696600003],[6.474962500000061,49.82127499900008],[6.365096101000063,49.84973655400006],[6.178724346000024,49.96211724300008],[6.137662500000033,50.12995149900007],[6.185575329000073,50.22320584100004],[6.365096101000063,50.31400240700003],[6.405028500000071,50.32330849900006],[6.425295,50.32301199900007],[6.601616849000038,50.380683160000046],[6.800711500000034,50.361781499000074],[6.77094317600006,50.39707601100008],[6.774385060000043,50.459699338000064],[6.890894314000036,50.48554470600004],[6.927901,50.55861849900003],[7.21239950000006,50.62340499900006],[7.440772,50.711437999000054],[7.661003500000049,50.82036449900005],[7.785898,50.939913999000055],[7.851496,50.92583249900008],[8.03969,50.69737549900003],[8.125776500000029,50.68581399900006],[8.151592,50.59937099900003],[8.012284646000069,50.52722357700003]]]]}},{"type":"Feature","properties":{"id":"DEU:DEC","name":"Saarland"},"geometry":{"type":"MultiPolygon","coordinates":[[[[7.27662250000003,49.54862349900003],[7.252589,49.43146549900007],[7.292601500000046,49.40822249900003],[7.395898500000044,49.37204599900008],[7.402075500000024,49.367718499000034],[7.394494,49.31635199900006],[7.309481252000069,49.23976484500008],[7.320341,49.18949899900008],[7.36875550000002,49.16145799900005],[7.246490809000022,49.117857627000035],[7.101069,49.15599799900008],[6.925465319000068,49.21381010700003],[6.784493918000067,49.16083663400008],[6.723465500000032,49.21882899900004],[6.556986,49.419208499000035],[6.365096101000063,49.459574659000054],[6.365096101000063,49.53950953100008],[6.609608402000049,49.52834879000005],[6.891454,49.61342249900008],[7.02798,49.63943849900005],[7.27662250000003,49.54862349900003]]]]}},{"type":"Feature","properties":{"id":"DEU:DED","name":"Sachsen"},"geometry":{"type":"MultiPolygon","coordinates":[[[[13.176731053000026,51.56365019300006],[13.21015,51.40473599900008],[13.395382296000037,51.44205537500005],[13.691250500000024,51.37401299900006],[13.835313,51.37678999900004],[14.030393885000024,51.42335019700005],[14.163324500000044,51.54104299900007],[14.447771,51.54206899900004],[14.729862,51.581776999000056],[14.767382263000059,51.51908593700006],[14.932977534000031,51.46513991100005],[14.974183,51.363949999000056],[15.022820756000044,51.27576794000004],[14.997341547000076,51.13754173600006],[14.823362,50.870550499000046],[14.767382263000059,50.81985103300008],[14.6188,50.85780449900005],[14.581976292000036,50.981578256000034],[14.491221,51.04353049900004],[14.317873500000076,51.05469899900004],[14.281860229000074,50.99951617600004],[14.36330857400003,50.903429636000055],[13.829705033000039,50.732850273000054],[13.652174,50.73035999900003],[13.501846,50.633642999000074],[13.056368098000064,50.50130451800004],[12.948144500000069,50.40431149900007],[12.814980793000075,50.44982022100004],[12.58377850000005,50.40707899900008],[12.322304616000054,50.207677197000066],[12.100900500000023,50.31802799900004],[11.919323,50.42472799900003],[11.896747209000068,50.54318200500006],[11.944137500000068,50.59127549900006],[12.13439267900003,50.581048398000064],[12.318916500000057,50.676532499000075],[12.250067813000044,50.73219752300008],[12.250825500000076,50.81831849900004],[12.652865500000075,50.92367799900006],[12.617355,50.98079299900007],[12.441382435000037,51.078941074000056],[12.283547,51.09192399900007],[12.170904500000063,51.27550849900007],[12.19354450000003,51.33251849900006],[12.198939,51.53132049900006],[12.580263,51.62606549900005],[13.051025,51.647676999000055],[13.176731053000026,51.56365019300006]]]]}},{"type":"Feature","properties":{"id":"DEU:DEE","name":"Sachsen-Anhalt"},"geometry":{"type":"MultiPolygon","coordinates":[[[[12.283547,51.09192399900007],[12.224169,50.942934999000045],[12.163529500000038,50.95859999900006],[12.021018500000025,50.969122499000036],[11.696938500000044,51.08749099900007],[11.484608500000036,51.10543749900006],[11.385374500000069,51.24588699900005],[11.473968,51.29505849900005],[11.393107,51.35949549900005],[10.978113,51.42688499900004],[10.916059,51.616373999000075],[10.701372,51.642187499000045],[10.561227,52.004065999000034],[10.801489,52.04799699900008],[10.964414500000032,52.056642999000076],[11.036816248000036,52.16327780600005],[11.051056437000057,52.37008322300005],[10.934542500000077,52.47179499900005],[11.008781500000055,52.49674749900004],[10.759314500000073,52.79583049900003],[10.841556,52.85220499900004],[11.505027,52.94103249900007],[11.597784500000046,53.03592649900003],[11.91460117500003,52.89539969300006],[12.12681150000003,52.89019949900006],[12.249203500000021,52.79186199900005],[12.171555,52.50633649900004],[12.31718,52.45409549900006],[12.236253773000044,52.17559335000004],[12.276724500000057,52.104017999000064],[12.376122500000065,52.045119499000066],[12.769780500000024,51.97927449900004],[13.150913500000058,51.85961049900004],[13.150917029000027,51.70956685400006],[13.051025,51.647676999000055],[12.580263,51.62606549900005],[12.198939,51.53132049900006],[12.19354450000003,51.33251849900006],[12.170904500000063,51.27550849900007],[12.283547,51.09192399900007]]]]}},{"type":"Feature","properties":{"id":"DEU:DEF","name":"Schleswig-Holstein"},"geometry":{"type":"MultiPolygon","coordinates":[[[[9.113097,54.873601499000074],[9.294053628000029,54.81052229800008],[9.420151500000031,54.83195649900006],[9.422934,54.82322299900005],[9.491949500000032,54.82263549900006],[9.92596868000004,54.77731669100007],[10.03117,54.63657499900006],[9.970446755000069,54.50674986900003],[10.168517,54.432844999000054],[10.174373837000076,54.34629987400007],[10.341463898000029,54.42795049300008],[10.71375050000006,54.30507249900006],[10.937591767000072,54.37253642600007],[11.073009282000044,54.31540099100005],[11.066790742000023,54.19220768500003],[10.781582736000075,54.06589680500008],[10.840886,53.99189399900007],[10.903661500000055,53.956821999000056],[10.762964500000066,53.81115299900006],[10.782266690000029,53.74212887200008],[10.951918500000033,53.64762249900008],[10.595047,53.363927499000056],[10.469184,53.38584399900003],[10.307954,53.433200999000064],[10.236678500000039,53.49635449900006],[10.17859326100006,53.534967341000026],[10.168447086000072,53.681768281000075],[10.072805,53.70963399900006],[9.945376,53.65292799900004],[9.730104,53.55758099900004],[9.48589,53.70766449900003],[9.272733,53.86766249900006],[9.199751,53.880104499000026],[9.028210259000048,53.88013263800008],[8.832592,54.023929499000076],[8.955681569000035,54.07128012900006],[8.828785045000075,54.164988366000046],[8.844804500000066,54.26632849900005],[8.69326122900003,54.32595365100008],[8.878017963000048,54.43896662100008],[8.855166754000038,54.56355163100005],[8.65460243900003,54.81183706000007],[8.635926,54.91168299900005],[9.028210259000048,54.88064693900003],[9.113097,54.873601499000074]]],[[[11.272382089000075,54.41470657800005],[11.12805181400006,54.41077233400006],[11.027967267000065,54.45021477800003],[11.026139068000077,54.507596489000036],[11.06072791500003,54.52990118100007],[11.210658012000067,54.507596489000036],[11.272382089000075,54.41470657800005]]],[[[8.574208988000066,54.677202298000054],[8.485066035000045,54.67675076200004],[8.38523510400006,54.71494280600007],[8.430900606000023,54.751397679000036],[8.596975197000063,54.743567161000044],[8.574208988000066,54.677202298000054]]],[[[8.375451834000046,54.86717631300007],[8.271810261000041,54.865587582000046],[8.330537957000047,54.98211315800006],[8.375710689000073,54.95904243400008],[8.375451834000046,54.86717631300007]]],[[[8.704124470000068,54.55643013700006],[8.68307683300003,54.47645184000004],[8.554701859000033,54.50188727500006],[8.555420193000032,54.53786589600003],[8.704124470000068,54.55643013700006]]],[[[8.383420461000071,54.64726116000003],[8.333663314000034,54.60706518400008],[8.263748090000036,54.66749105100007],[8.358313922000036,54.73776141600007],[8.383420461000071,54.64726116000003]]],[[[7.940571306000038,54.20554988100008],[7.916555794000033,54.119422787000076],[7.800921521000021,54.21118334100004],[7.888383327000042,54.23612984400006],[7.940571306000038,54.20554988100008]]]]}},{"type":"Feature","properties":{"id":"DEU:DEG","name":"Thüringen"},"geometry":{"type":"MultiPolygon","coordinates":[[[[10.916059,51.616373999000075],[10.978113,51.42688499900004],[11.393107,51.35949549900005],[11.473968,51.29505849900005],[11.385374500000069,51.24588699900005],[11.484608500000036,51.10543749900006],[11.696938500000044,51.08749099900007],[12.021018500000025,50.969122499000036],[12.163529500000038,50.95859999900006],[12.224169,50.942934999000045],[12.283547,51.09192399900007],[12.441382435000037,51.078941074000056],[12.617355,50.98079299900007],[12.652865500000075,50.92367799900006],[12.250825500000076,50.81831849900004],[12.250067813000044,50.73219752300008],[12.318916500000057,50.676532499000075],[12.13439267900003,50.581048398000064],[11.944137500000068,50.59127549900006],[11.896747209000068,50.54318200500006],[11.919323,50.42472799900003],[11.604540038000039,50.39707601100008],[11.481568,50.43162149900007],[11.373521139000047,50.51220343500006],[11.265938,50.47942099900007],[11.264968572000043,50.39707601100008],[11.189943,50.27118549900007],[10.945718500000055,50.38646649900005],[10.74247207600007,50.36243878600004],[10.829974468000046,50.26078860600006],[10.729202,50.23000549900007],[10.610115,50.22799499900003],[10.589591350000035,50.31985615800005],[10.45417136900005,50.39707601100008],[10.216964401000041,50.53211020900005],[10.041338500000052,50.51646949900004],[10.077555500000074,50.63762399900003],[9.900994413000035,50.65500510100003],[9.926176500000054,50.767389999000045],[10.036739684000054,50.866849968000054],[10.021558500000026,50.992949499000076],[10.162293291000026,51.010419951000074],[10.210013,51.144082999000034],[10.206942,51.190648999000075],[9.986171155000022,51.29300327300007],[9.928339,51.37529899900005],[10.265768360000038,51.48460944800007],[10.380029808000074,51.57562148300008],[10.488551,51.57477849900005],[10.677283,51.63837599900006],[10.701372,51.642187499000045],[10.916059,51.616373999000075]]]]}}]}