{"type":"FeatureCollection","features":[{"type":"Feature","properties":{"id":"GBR:UKC","name":"North East (UK)"},"geometry":{"type":"MultiPolygon","coordinates":[[[[-1.17593252599994,54.69708506100005],[-1.179672531999927,54.69392841400003],[-1.189246712999932,54.695669475000045],[-1.194698289999963,54.692399125000065],[-1.19344186099994,54.68856956500008],[-1.198487870999941,54.684690756000066],[-1.198468499999933,54.67957299900007],[-1.183019000999934,54.659671950000075],[-1.162575433999962,54.64664312000008],[-1.166705143999934,54.64377540000004],[-1.165014453999959,54.63388667800007],[-1.16495103799997,54.63122868200003],[-1.164657510999973,54.62838855600006],[-1.16789782099994,54.625986064000074],[-1.173444271999927,54.62428815000004],[-1.177727260999973,54.62120009100005],[-1.180925036999952,54.616998384000055],[-1.182760271999939,54.612047423000035],[-1.183107105999966,54.60673871100005],[-1.182837874999962,54.60369995000008],[-1.184077909999928,54.59825965600004],[-1.186930321999967,54.59346401000005],[-1.191134408999972,54.58975087300007],[-1.197892086999957,54.58543558800005],[-1.206438575999925,54.58250846200008],[-1.229223264999973,54.58488743500004],[-1.215352152999969,54.580843644000026],[-1.204704,54.580238991000044],[-1.196843,54.58174499900008],[-1.16370745699993,54.60210537700004],[-1.153379585999971,54.601782419000074],[-1.155494137999938,54.60655355500006],[-1.151283733999946,54.61622444300008],[-1.153085523999948,54.626368306000074],[-1.139327481999942,54.62960580100008],[-1.137825647999932,54.638402359000054],[-1.128578541999957,54.635709303000056],[-1.125289988999953,54.633979202000035],[-0.790906499999949,54.55948249900007],[-0.924629546999938,54.49340586400007],[-1.125289988999953,54.504379922000055],[-1.234791,54.51036849900004],[-1.434778,54.48751449900004],[-1.696865,54.53606049900003],[-2.093750417999956,54.47068094100007],[-2.170166499999937,54.45825599900007],[-2.184059845999968,54.52764744500007],[-2.290333113999964,54.596096172000045],[-2.340246176999926,54.695047955000064],[-2.312043,54.79108049900003],[-2.51435455799998,54.834467575000076],[-2.576154484999961,54.84772098500008],[-2.51435455799998,55.02095988600007],[-2.51435455799998,55.06430899800006],[-2.584358102999943,55.10698046300007],[-2.653503327999942,55.14179954400004],[-2.689751,55.18906399900004],[-2.584358102999943,55.25022735500005],[-2.51435455799998,55.290852975000064],[-2.262039174999927,55.43728082800004],[-2.260179505999929,55.643852828000036],[-2.093750417999956,55.76714505600006],[-2.034329,55.81116499900003],[-1.631758661999925,55.54861676200005],[-1.461693,55.07439049900006],[-1.36390149999994,54.944183499000076],[-1.347372499999949,54.86069099900004],[-1.242229499999951,54.72259499900008],[-1.230345131999968,54.717216402000076],[-1.217639499999962,54.71159749900005],[-1.214943,54.71113199900003],[-1.209883499999933,54.70897649900007],[-1.179184006999947,54.69967911500004],[-1.17593252599994,54.69708506100005]]]]}},{"type":"Feature","properties":{"id":"GBR:UKD","name":"North West (UK)"},"geometry":{"type":"MultiPolygon","coordinates":[[[[-2.51435455799998,55.02095988600007],[-2.576154484999961,54.84772098500008],[-2.51435455799998,54.834467575000076],[-2.312043,54.79108049900003],[-2.340246176999926,54.695047955000064],[-2.290333113999964,54.596096172000045],[-2.184059845999968,54.52764744500007],[-2.170166499999937,54.45825599900007],[-2.294167162999941,54.40838796700007],[-2.339847708999969,54.25246046900003],[-2.460827499999937,54.22676449900007],[-2.51435455799998,54.16113982000007],[-2.540674713999977,54.12887105900006],[-2.51435455799998,54.09831337500003],[-2.469517,54.046256999000036],[-2.184482499999945,53.952304999000035],[-2.093750417999956,53.88530522700006],[-2.046130499999947,53.850140999000075],[-2.06121,53.825671999000065],[-2.093750417999956,53.77082565900008],[-2.146293,53.68226599900004],[-2.093750417999956,53.65033679700008],[-1.909583,53.53842149900004],[-1.963350499999933,53.50985349900003],[-2.031023499999947,53.37028899900008],[-1.987376,53.21360799900003],[-2.093750417999956,53.15542279400006],[-2.380768,52.998428499000056],[-2.51435455799998,52.95959818600005],[-2.584358102999943,52.97317427200005],[-2.699274499999945,52.995460499000046],[-2.726823499999966,52.983295499000064],[-2.835844883999926,53.01432149200008],[-2.957688563999966,53.20252254400003],[-3.101346499999977,53.26694099900004],[-3.110706,53.29631799900005],[-3.172833176999973,53.37654839900006],[-3.058696743999974,53.42582327300005],[-2.928556499999956,53.30827699900004],[-2.752411499999937,53.31475449900006],[-2.826677,53.331672499000035],[-2.947724526999934,53.36903048100004],[-3.008742,53.43841149900004],[-3.086999659999947,53.558005912000056],[-2.956203,53.69752899900004],[-2.833743,53.72212999900006],[-3.057371499999931,53.776481499000056],[-3.047940499999925,53.875774499000045],[-2.881166260999976,53.97116623800008],[-2.899354538999944,54.03602011600003],[-2.831205904999933,54.114787206000074],[-2.86947,54.176738499000066],[-3.148359804999927,54.093957680000074],[-3.360777862999953,54.22711406500008],[-3.618217073999972,54.52777578600006],[-3.363396536999971,54.888988479000034],[-3.248261140999944,54.94559006000003],[-3.121205506999956,54.927933745000075],[-3.057370499999934,54.98689649900007],[-2.858508,55.10842499900008],[-2.689751,55.18906399900004],[-2.653503327999942,55.14179954400004],[-2.584358102999943,55.10698046300007],[-2.51435455799998,55.06430899800006],[-2.51435455799998,55.02095988600007]]]]}},{"type":"Feature","properties":{"id":"GBR:UKE","name":"Yorkshire and The Humber"},"geometry":{"type":"MultiPolygon","coordinates":[[[[-0.790906499999949,54.55948249900007],[-0.562274513999967,54.46373147600008],[-0.212449499999934,54.15762699900006],[-0.150182878999942,54.12215481000004],[-0.202472956999941,54.04341832500006],[-0.182852738999941,53.95733098000005],[-0.000057787999935,53.759811479000064],[0.08389968900002,53.670593223000026],[-0.098812517999932,53.645298411000056],[-0.250096,53.73331849900006],[-0.419136499999979,53.71961999900003],[-0.698473255999943,53.68550539000006],[-0.308374349999951,53.70507494200007],[0.017378,53.525367499000026],[-0.139437129999976,53.45274051500007],[-0.299536621999948,53.59476125600003],[-0.513935795999942,53.472592457000076],[-0.690836684999965,53.51364751400007],[-0.797417499999938,53.45508599900006],[-0.935518,53.50252149900007],[-1.125289988999953,53.36526414400004],[-1.199686499999927,53.311454999000034],[-1.324669,53.32880999900004],[-1.599118,53.31131799900004],[-1.801470499999937,53.48099199900008],[-1.822188499999925,53.52111799900007],[-1.909583,53.53842149900004],[-2.093750417999956,53.65033679700008],[-2.146293,53.68226599900004],[-2.093750417999956,53.77082565900008],[-2.06121,53.825671999000065],[-2.046130499999947,53.850140999000075],[-2.093750417999956,53.88530522700006],[-2.184482499999945,53.952304999000035],[-2.469517,54.046256999000036],[-2.51435455799998,54.09831337500003],[-2.540674713999977,54.12887105900006],[-2.51435455799998,54.16113982000007],[-2.460827499999937,54.22676449900007],[-2.339847708999969,54.25246046900003],[-2.294167162999941,54.40838796700007],[-2.170166499999937,54.45825599900007],[-2.093750417999956,54.47068094100007],[-1.696865,54.53606049900003],[-1.434778,54.48751449900004],[-1.234791,54.51036849900004],[-1.125289988999953,54.504379922000055],[-0.924629546999938,54.49340586400007],[-0.790906499999949,54.55948249900007]]]]}},{"type":"Feature","properties":{"id":"GBR:UKF","name":"East Midlands (UK)"},"geometry":{"type":"MultiPolygon","coordinates":[[[[-0.299536621999948,53.59476125600003],[-0.139437129999976,53.45274051500007],[0.017378,53.525367499000026],[0.171470900000031,53.46233272300003],[0.261888675000023,53.33442539300006],[0.328505158000041,53.24018798900005],[0.32745417600006,53.10884201500005],[0.261888675000023,53.06025012900005],[0.083983198000055,52.928400871000065],[0.261888675000023,52.81276235900003],[0.171689,52.73803699900003],[-0.031326499999977,52.66151599900007],[-0.494973499999958,52.640239499000074],[-0.415381499999967,52.57874249900004],[-0.379645203999928,52.472973403000026],[-0.465321499999959,52.322955999000044],[-0.668097,52.19503399900003],[-0.705417499999953,52.19157049900008],[-0.842309550999971,52.124348104000035],[-0.871292499999925,52.040252499000076],[-0.996729380999966,52.070175988000074],[-1.118059,52.015431499000044],[-1.251476723999929,52.02264448400007],[-1.331897,52.16848499900004],[-1.20158,52.39673599900004],[-1.301212498999973,52.48992439600005],[-1.522118943999942,52.57651184500003],[-1.589611,52.68727099900008],[-1.597507,52.700431999000045],[-1.657750602999954,52.73984940000008],[-1.648951456999953,52.84260633300005],[-1.803052835999949,52.91575891700006],[-1.812788360999946,53.11292816000008],[-1.987376,53.21360799900003],[-2.031023499999947,53.37028899900008],[-1.963350499999933,53.50985349900003],[-1.909583,53.53842149900004],[-1.822188499999925,53.52111799900007],[-1.801470499999937,53.48099199900008],[-1.599118,53.31131799900004],[-1.324669,53.32880999900004],[-1.199686499999927,53.311454999000034],[-1.125289988999953,53.36526414400004],[-0.935518,53.50252149900007],[-0.797417499999938,53.45508599900006],[-0.690836684999965,53.51364751400007],[-0.513935795999942,53.472592457000076],[-0.299536621999948,53.59476125600003]]]]}},{"type":"Feature","properties":{"id":"GBR:UKG","name":"West Midlands (UK)"},"geometry":{"type":"MultiPolygon","coordinates":[[[[-1.812788360999946,53.11292816000008],[-1.803052835999949,52.91575891700006],[-1.648951456999953,52.84260633300005],[-1.657750602999954,52.73984940000008],[-1.597507,52.700431999000045],[-1.589611,52.68727099900008],[-1.522118943999942,52.57651184500003],[-1.301212498999973,52.48992439600005],[-1.20158,52.39673599900004],[-1.331897,52.16848499900004],[-1.560124082999948,51.98178830300003],[-1.665732499999933,51.98749149900004],[-1.767627,52.11259449900007],[-1.856610215999979,52.02522143900006],[-2.093750417999956,52.00145499300004],[-2.280641572999969,51.982724561000055],[-2.351362,52.02136599900007],[-2.467053445999966,51.97826348800004],[-2.474016892999941,51.89054109600005],[-2.51435455799998,51.87580037200007],[-2.584358102999943,51.85021875000007],[-2.65021349999995,51.826152999000044],[-3.067357499999957,51.98315049900003],[-3.11029068199997,52.074590973000056],[-3.080470168999966,52.20203386400004],[-2.954719,52.34925849900003],[-3.185359932999972,52.43403289400004],[-3.07666263599998,52.52218663300005],[-3.041386171999932,52.71737306000006],[-3.14748,52.89015599900006],[-2.984652926999956,52.95559308900005],[-2.776734460999933,52.911422765000054],[-2.726823499999966,52.983295499000064],[-2.699274499999945,52.995460499000046],[-2.584358102999943,52.97317427200005],[-2.51435455799998,52.95959818600005],[-2.380768,52.998428499000056],[-2.093750417999956,53.15542279400006],[-1.987376,53.21360799900003],[-1.812788360999946,53.11292816000008]]]]}},{"type":"Feature","properties":{"id":"GBR:UKH","name":"East of England"},"geometry":{"type":"MultiPolygon","coordinates":[[[[0.917770847000043,51.71562623900007],[0.904508766000049,51.656856711000046],[0.590769500000022,51.63064949900007],[0.811478710000074,51.60088429400008],[0.821236500000055,51.54071199900005],[0.80983997900006,51.54041765800008],[0.626791,51.53217299900007],[0.51370350000002,51.53118499900006],[0.383468575000052,51.474619406000045],[0.261888675000023,51.48061051500008],[0.210514,51.49003599900004],[0.261888675000023,51.52799341600007],[0.313079500000072,51.565814999000054],[0.261888675000023,51.592660942000066],[0.200354,51.62493149900007],[0.138225500000033,51.62354299900005],[-0.012219499999958,51.64622899900007],[-0.011878499999966,51.680877499000076],[-0.182047499999953,51.66860199900003],[-0.304423,51.636348499000064],[-0.500561499999947,51.59968949900008],[-0.661451238999973,51.78470569900003],[-0.553598,51.82670949900006],[-0.678041893999932,51.91243344900005],[-0.652946499999928,51.96923049900005],[-0.591772499999934,52.11069099900004],[-0.668097,52.19503399900003],[-0.465321499999959,52.322955999000044],[-0.379645203999928,52.472973403000026],[-0.415381499999967,52.57874249900004],[-0.494973499999958,52.640239499000074],[-0.031326499999977,52.66151599900007],[0.171689,52.73803699900003],[0.261888675000023,52.81276235900003],[0.400237048000065,52.83041910900005],[0.584218527000075,52.96738139300004],[1.061675980000075,52.95650850900006],[1.389699147000044,52.89259288900007],[1.675478,52.74269099900005],[1.740543500000058,52.53210049900008],[1.550637255000026,52.08957308000004],[1.335920750000071,51.96475019500008],[1.104539272000068,51.94271486100007],[1.229362477000052,51.92570876600007],[1.251138142000059,51.87283606500006],[1.109055710000064,51.78549082500007],[0.906448365000074,51.782339225000044],[0.844557500000064,51.78137649900003],[0.917770847000043,51.71562623900007]]]]}},{"type":"Feature","properties":{"id":"GBR:UKI","name":"London"},"geometry":{"type":"MultiPolygon","coordinates":[[[[-0.012219499999958,51.64622899900007],[0.138225500000033,51.62354299900005],[0.200354,51.62493149900007],[0.261888675000023,51.592660942000066],[0.313079500000072,51.565814999000054],[0.261888675000023,51.52799341600007],[0.210514,51.49003599900004],[0.15173917900006,51.512712728000054],[0.096999500000038,51.515670999000065],[0.00941750000004,51.50709899900005],[-0.07944649999996,51.50780499900003],[-0.111511,51.51075349900003],[-0.149948499999937,51.48551549900003],[-0.244502,51.48870099900006],[-0.222829,51.471816999000055],[-0.128365499999973,51.48505799900005],[-0.108863,51.50844949900005],[-0.024711499999967,51.485648999000034],[0.12381894300006,51.506617971000026],[0.217437,51.480071999000074],[0.152974,51.40870299900007],[0.148871,51.40850449900006],[0.042433500000072,51.29266749900006],[0.002330500000028,51.329131999000026],[-0.156508,51.321506499000066],[-0.251866664999966,51.364148155000066],[-0.330655499999978,51.32900949900005],[-0.317698,51.39366699900006],[-0.458605499999976,51.45631399900003],[-0.50966649999998,51.46917349900008],[-0.489989499999979,51.49474699900003],[-0.500561499999947,51.59968949900008],[-0.304423,51.636348499000064],[-0.182047499999953,51.66860199900003],[-0.011878499999966,51.680877499000076],[-0.012219499999958,51.64622899900007]]]]}},{"type":"Feature","properties":{"id":"GBR:UKJ","name":"South East (UK)"},"geometry":{"type":"MultiPolygon","coordinates":[[[[-0.591772499999934,52.11069099900004],[-0.652946499999928,51.96923049900005],[-0.678041893999932,51.91243344900005],[-0.553598,51.82670949900006],[-0.661451238999973,51.78470569900003],[-0.500561499999947,51.59968949900008],[-0.489989499999979,51.49474699900003],[-0.50966649999998,51.46917349900008],[-0.458605499999976,51.45631399900003],[-0.317698,51.39366699900006],[-0.330655499999978,51.32900949900005],[-0.251866664999966,51.364148155000066],[-0.156508,51.321506499000066],[0.002330500000028,51.329131999000026],[0.042433500000072,51.29266749900006],[0.148871,51.40850449900006],[0.152974,51.40870299900007],[0.217437,51.480071999000074],[0.261888675000023,51.460808445000055],[0.384384092000062,51.457646183000065],[0.458900500000027,51.45493699900004],[0.674656553000034,51.45570988500003],[0.626894500000049,51.37520999900005],[0.795235003000073,51.436216484000056],[0.906448365000074,51.37134710700008],[0.950342183000032,51.34574438700008],[1.104539272000068,51.37235498700005],[1.416693107000071,51.356901392000054],[1.363636475000021,51.14619427000008],[1.104539272000068,51.06880212200008],[1.039429187000053,51.049616581000066],[0.976053383000021,51.00051661100008],[0.955448570000044,50.92444365400007],[0.906448365000074,50.92408653500007],[0.854784,50.92370999900004],[0.261888675000023,50.75149200200008],[-0.038176499999963,50.79950349900008],[-0.216009,50.82756399900006],[-0.794732901999964,50.73756902100007],[-0.932831,50.843150999000045],[-0.98510674299996,50.801732137000045],[-1.023967499999969,50.83291649900008],[-1.069921014999977,50.80717741700005],[-1.125289988999953,50.835020662000034],[-1.212040414999933,50.81418532100008],[-1.365159499999947,50.88006949900006],[-1.45195937799997,50.91412013000007],[-1.341993530999957,50.80226247300004],[-1.692049499999939,50.73662549900007],[-1.956807,50.98982999900005],[-1.63680814199995,50.970423846000074],[-1.644559839999943,51.19591283900007],[-1.49828,51.329375999000035],[-1.584689499999968,51.524913999000034],[-1.602793499999962,51.51829549900003],[-1.687097604999963,51.69066541400008],[-1.665732499999933,51.98749149900004],[-1.560124082999948,51.98178830300003],[-1.331897,52.16848499900004],[-1.251476723999929,52.02264448400007],[-1.118059,52.015431499000044],[-0.996729380999966,52.070175988000074],[-0.871292499999925,52.040252499000076],[-0.842309550999971,52.124348104000035],[-0.705417499999953,52.19157049900008],[-0.668097,52.19503399900003],[-0.591772499999934,52.11069099900004]]],[[[-1.198502320999978,50.600798144000066],[-1.301185543999964,50.57537433400006],[-1.488348985999949,50.660899089000054],[-1.512072134999926,50.686673917000064],[-1.301185543999964,50.76654134100005],[-1.112570270999925,50.69116960400004],[-1.198502320999978,50.600798144000066]]]]}},{"type":"Feature","properties":{"id":"GBR:UKK","name":"South West (UK)"},"geometry":{"type":"MultiPolygon","coordinates":[[[[-1.665732499999933,51.98749149900004],[-1.687097604999963,51.69066541400008],[-1.602793499999962,51.51829549900003],[-1.584689499999968,51.524913999000034],[-1.49828,51.329375999000035],[-1.644559839999943,51.19591283900007],[-1.63680814199995,50.970423846000074],[-1.956807,50.98982999900005],[-1.692049499999939,50.73662549900007],[-1.74072549999994,50.721538499000076],[-2.029806629999939,50.71556263600007],[-1.979748522999955,50.65197502600006],[-2.01779291899993,50.602440228000034],[-2.51435455799998,50.60802512400005],[-2.584358102999943,50.62583564800008],[-2.947815,50.71830749900005],[-3.264282674999947,50.66330160600006],[-3.509030499999938,50.51651399900004],[-3.510436931999948,50.37884989100007],[-3.677834074999964,50.21821572400006],[-3.837515258999929,50.22757147800007],[-3.93069199599995,50.30222159600004],[-4.075405444999944,50.30209611300006],[-4.123281,50.34680549900003],[-4.18704,50.42440049900006],[-4.218628499999966,50.47520449900003],[-4.286397617999967,50.37596125300007],[-4.736237288999973,50.31995243400007],[-4.817113316999951,50.23407786400003],[-5.068088924999927,50.182797821000065],[-5.083055828999932,50.03495701700007],[-5.195487514999968,49.98236455800003],[-5.453386351999939,50.11269788000004],[-5.684548482999958,50.06587331900005],[-5.663651110999979,50.14970180300003],[-5.28572,50.27236167900003],[-5.068168685999979,50.43513288100007],[-4.998889475999931,50.557193383000026],[-4.811703525999974,50.60735617100005],[-4.618085083999972,50.74220790000004],[-4.545959499999981,50.92835249900003],[-4.497580968999955,51.00688130300006],[-4.308928970999943,51.00850707500007],[-4.159128576999933,51.191947165000045],[-3.720778499999938,51.23309349900006],[-3.059240186999943,51.19002533300005],[-2.992948,51.32031999900005],[-2.808832937999966,51.47015424800003],[-2.679612,51.48021299900006],[-2.673813499999937,51.54443099900004],[-2.584358102999943,51.62984306700008],[-2.534685499999966,51.67727049900003],[-2.584358102999943,51.66295374500004],[-2.666091,51.63939649900004],[-2.65021349999995,51.826152999000044],[-2.584358102999943,51.85021875000007],[-2.51435455799998,51.87580037200007],[-2.474016892999941,51.89054109600005],[-2.467053445999966,51.97826348800004],[-2.351362,52.02136599900007],[-2.280641572999969,51.982724561000055],[-2.093750417999956,52.00145499300004],[-1.856610215999979,52.02522143900006],[-1.767627,52.11259449900007],[-1.665732499999933,51.98749149900004]]],[[[-6.240541311999948,49.94679601000007],[-6.349828749999972,49.88122172100003],[-6.384672345999945,49.93650186100007],[-6.283453839999936,49.99793968100005],[-6.240541311999948,49.94679601000007]]]]}},{"type":"Feature","properties":{"id":"GBR:UKL","name":"Wales"},"geometry":{"type":"MultiPolygon","coordinates":[[[[-2.726823499999966,52.983295499000064],[-2.776734460999933,52.911422765000054],[-2.984652926999956,52.95559308900005],[-3.14748,52.89015599900006],[-3.041386171999932,52.71737306000006],[-3.07666263599998,52.52218663300005],[-3.185359932999972,52.43403289400004],[-2.954719,52.34925849900003],[-3.080470168999966,52.20203386400004],[-3.11029068199997,52.074590973000056],[-3.067357499999957,51.98315049900003],[-2.65021349999995,51.826152999000044],[-2.666091,51.63939649900004],[-3.082688,51.501907499000026],[-3.191751217999979,51.41008559200003],[-3.37860625999997,51.38562494200005],[-3.637855499999944,51.46984099900004],[-3.751618557999961,51.51507891400007],[-3.88623,51.61738599900008],[-4.176744414999973,51.549663707000036],[-4.281211356999961,51.57343231300007],[-4.256503318999933,51.62240478000007],[-4.05255,51.70328149900007],[-4.520808424999927,51.73841806000007],[-4.982018054999969,51.617405742000074],[-5.160073876999945,51.72357062400005],[-5.155779994999932,51.83360628600008],[-5.225607692999972,51.90227897300008],[-5.035884374999966,52.01670690100008],[-4.278765736999958,52.240040977000035],[-3.931013499999949,52.553611999000054],[-4.082693592999931,52.594050605000064],[-4.089290629999937,52.73393190500008],[-4.181506645999946,52.88987213200005],[-4.52272318699994,52.81649897800003],[-4.643111570999963,52.847686485000054],[-4.173403694999934,53.20252254400003],[-4.007376,53.24692899900003],[-3.751618557999961,53.315982140000074],[-3.363392499999975,53.35202799900003],[-3.101346499999977,53.26694099900004],[-2.957688563999966,53.20252254400003],[-2.835844883999926,53.01432149200008],[-2.726823499999966,52.983295499000064]]],[[[-4.216534779999961,53.20252254400003],[-4.328814484999953,53.12554173400008],[-4.416505489999963,53.13383082900003],[-4.499705462999941,53.20252254400003],[-4.603684390999945,53.29726951600003],[-4.550154924999958,53.39978696000003],[-4.407360922999942,53.42606190300006],[-4.105653690999929,53.298390323000035],[-4.216534779999961,53.20252254400003]]]]}},{"type":"Feature","properties":{"id":"GBR:UKM","name":"Scotland"},"geometry":{"type":"MultiPolygon","coordinates":[[[[-3.086225002999925,58.63364017600003],[-3.07429842099998,58.44258841000004],[-3.145750307999947,58.359366382000076],[-3.95063958999998,57.96595820500005],[-4.028961703999926,57.85731431000005],[-3.905584506999958,57.81227214000006],[-3.926757252999948,57.74274290100004],[-4.099221085999943,57.685688423000045],[-4.110449692999964,57.606625852000036],[-4.21088201799995,57.53287475500008],[-4.432052499999941,57.494353999000055],[-4.195919682999943,57.48945132700004],[-4.032887477999964,57.58473652100008],[-3.405850192999935,57.71612456100007],[-2.801509,57.69524749900006],[-2.584358102999943,57.69522799500004],[-2.51435455799998,57.69522170700003],[-2.093750417999956,57.69518392900005],[-1.887757798999928,57.62728045000006],[-1.816787790999967,57.50089161500006],[-2.093750417999956,57.125069231000055],[-2.214080581999951,56.90824685300004],[-2.425346,56.75518799900004],[-2.584358102999943,56.55157256900003],[-3.051892499999951,56.45849999900008],[-3.139986487999977,56.42283351300006],[-3.252588616999958,56.351955030000056],[-2.865313957999945,56.44489162200006],[-2.671164734999934,56.27033066000007],[-3.396493274999955,56.03290752400005],[-3.852450102999967,56.12061638200004],[-3.820153,56.099117499000045],[-3.515724,56.00225849900005],[-3.425330499999973,55.99402999900008],[-3.07764549999996,55.94689549900005],[-2.752715565999949,56.06099786600004],[-2.584358102999943,56.010901938000075],[-2.51435455799998,55.99007189800005],[-2.366623499999946,55.946113499000035],[-2.034329,55.81116499900003],[-2.093750417999956,55.76714505600006],[-2.260179505999929,55.643852828000036],[-2.262039174999927,55.43728082800004],[-2.51435455799998,55.290852975000064],[-2.584358102999943,55.25022735500005],[-2.689751,55.18906399900004],[-2.858508,55.10842499900008],[-3.057370499999934,54.98689649900007],[-3.510754550999934,54.96712898100003],[-3.973072242999933,54.78333100300006],[-4.36614852699995,54.84541942800007],[-4.438288044999979,54.706668954000065],[-4.83359190699997,54.855175787000064],[-4.967871499999944,54.71283791700006],[-5.151517858999966,54.90027800200005],[-5.131906993999962,54.97533312100006],[-5.040228499999955,54.997726499000066],[-5.000264548999951,55.11468553000003],[-4.981526446999965,55.14709270600008],[-4.870913659999928,55.22236202700003],[-4.849182091999978,55.26379022200007],[-4.641924680999978,55.47014455600004],[-4.658272499999953,55.57028949900007],[-4.849182091999978,55.67149888400007],[-4.889346435999926,55.70735489100008],[-4.858851963999939,55.77933590100008],[-4.888966499999981,55.87478999900003],[-4.849182091999978,55.95202370100003],[-4.476562097999931,55.919186979000074],[-4.392409,55.88967899900007],[-4.478557611999975,55.92612310900006],[-4.677751903999933,55.96538929600007],[-4.714436191999937,55.99405344100006],[-4.761920255999939,56.00960856700004],[-4.848749273999942,55.99322977500003],[-4.876708550999979,56.061496282000064],[-4.74865099799996,56.20332850700004],[-4.897064624999928,56.057586755000045],[-5.050617849999981,55.810854465000034],[-5.354932344999952,55.86153196100008],[-5.368853182999942,55.71300342700005],[-5.174797959999978,55.67010959000004],[-5.099791805999928,55.53499326600007],[-5.119946297999945,55.46241783000005],[-5.269445476999977,55.46106193500003],[-5.416562183999929,55.60138650400006],[-5.555792198999939,55.39969698600004],[-5.72361392199997,55.36852026500003],[-5.561055665999959,56.26997040900005],[-5.454308756999978,56.53399091800003],[-5.605790776999925,56.512986381000076],[-5.845519736999961,56.34568274700007],[-6.225140333999946,56.33495479700008],[-6.233429788999956,56.57614622400007],[-6.073317162999956,56.73876136800004],[-5.829858760999969,56.85311731500008],[-5.784940878999976,57.067561571000056],[-5.962101966999967,57.07302561600005],[-6.079090930999939,57.160321872000054],[-6.322004912999944,57.220906005000074],[-6.682000777999974,57.453888463000055],[-6.59893005999993,57.541631263000056],[-6.298197703999961,57.62911874800005],[-6.182775351999965,57.56428455400004],[-6.084718853999959,57.39248162300004],[-5.920083089999935,57.30807523800007],[-5.504436,57.36693949900007],[-5.80467850499997,57.407449564000046],[-5.826656954999976,57.52262162800008],[-5.746857534999947,57.58890287200006],[-5.790452874999971,57.80468355100004],[-5.319785724999974,57.928461706000064],[-5.399089322999941,58.041579779000074],[-5.330006677999961,58.10634303200004],[-5.325042947999975,58.221972762000064],[-5.171538924999936,58.29837481200008],[-5.00521465199995,58.58895140900006],[-4.249199121999936,58.53740039400003],[-3.086225002999925,58.63364017600003]]],[[[-6.436807168999962,57.96900980600003],[-6.973962712999935,57.736667615000044],[-7.058774404999951,57.79209495600003],[-6.932590907999952,57.91388236100005],[-7.056487226999934,57.970660561000045],[-7.120225131999973,58.093584504000034],[-7.063534193999942,58.204031986000075],[-6.350304736999931,58.46311874400004],[-6.262257944999931,58.515202153000075],[-6.188193529999978,58.46311874400004],[-6.204676702999961,58.34295804800007],[-6.354836342999931,58.20494901300003],[-6.436807168999962,57.96900980600003]]],[[[-0.981919860999938,60.57591026800003],[-1.124852998999927,60.42039579200008],[-1.051158936999968,60.33313005100007],[-1.124852998999927,60.311569803000054],[-1.297594966999952,59.91702163400004],[-1.36237442099997,59.98106248200003],[-1.313926003999939,60.17036771800008],[-1.509015971999929,60.178705155000046],[-1.660447602999966,60.26295799500008],[-1.477960678999978,60.38435645800007],[-1.540124177999928,60.51090321600003],[-1.431517394999958,60.58591547600008],[-1.352581910999959,60.581992150000076],[-1.298539648999963,60.46251474300004],[-1.193127904999926,60.48340544300004],[-1.124852998999927,60.69829099300006],[-0.860854935999953,60.809757981000075],[-0.807548173999976,60.77324010800004],[-0.850976616999958,60.622328509000056],[-0.981919860999938,60.57591026800003]]],[[[-5.699142601999938,56.102075659000036],[-5.952793594999946,55.81541131300003],[-6.072955250999939,55.779249478000054],[-6.045530731999975,55.663697795000076],[-6.320267010999942,55.60066958200008],[-6.258228224999925,55.779249478000054],[-6.349675892999926,55.779249478000054],[-6.421041514999956,55.70334811400005],[-6.519348011999966,55.69518148800006],[-6.409924352999951,55.86898471000006],[-6.207887988999971,55.91689010400006],[-6.096274957999981,55.903136224000036],[-5.81280139699993,56.102075659000036],[-5.718705593999971,56.14370071900004],[-5.699142601999938,56.102075659000036]]],[[[-7.230690362999951,57.10194405300007],[-7.364997053999957,57.10194405300007],[-7.424717488999931,57.216042481000045],[-7.365519989999939,57.52192070900003],[-7.530704194999942,57.59539602400008],[-7.454440292999948,57.65897722100004],[-7.265778953999927,57.66822952400008],[-7.18353450099994,57.72685112800008],[-7.066040009999938,57.68633674700004],[-7.110305229999938,57.59539602400008],[-7.155312633999927,57.59539602400008],[-7.138767754999947,57.52597108100008],[-7.205148913999949,57.42877108500005],[-7.230690362999951,57.10194405300007]]],[[[-3.014179647999924,59.00747644200004],[-2.888099003999969,58.98282368800005],[-2.889785679999932,59.05561281800004],[-2.824695968999947,59.08861374000003],[-2.76559184599995,59.01340864200006],[-2.804080641999974,58.96997410400007],[-2.761514017999957,58.917645536000066],[-2.883457945999965,58.87698911800004],[-2.997639148999951,58.94801464500006],[-3.256944336999936,58.95169361900008],[-3.29315279399998,58.91309143600006],[-3.222535707999953,58.857880857000055],[-3.237424268999973,58.77656076400007],[-3.32427280099995,58.79738866900004],[-3.409072944999934,58.88315221700003],[-3.342718944999945,59.10909305600006],[-3.258297806999963,59.148105186000066],[-3.093335807999949,59.148105186000066],[-3.074989996999932,59.19260241900008],[-2.982670806999977,59.18405412200008],[-2.96835103199993,59.148105186000066],[-3.033781272999931,59.10233537800008],[-3.014179647999924,59.00747644200004]]],[[[-6.23660869899993,57.007220679000056],[-6.319229924999945,56.93563597100007],[-6.452943836999964,57.00778569500005],[-6.341248072999974,57.05916715800004],[-6.23660869899993,57.007220679000056]]],[[[-6.876028880999968,56.487864837000075],[-6.894200094999974,56.44512253700003],[-6.979469520999942,56.45306951800006],[-6.997718603999942,56.50424871300004],[-6.832079599999929,56.538431263000064],[-6.795512016999965,56.50620512300003],[-6.876028880999968,56.487864837000075]]],[[[-6.49430523999996,56.619167065000056],[-6.629342106999957,56.571733892000054],[-6.645865158999925,56.59780491200007],[-6.525292859999979,56.683603953000045],[-6.468422509999925,56.68245084900008],[-6.49430523999996,56.619167065000056]]],[[[-7.385609691999946,57.00149639400007],[-7.450962286999925,56.93464935700007],[-7.525994174999937,56.955047440000044],[-7.543198959999927,57.02115643900004],[-7.385609691999946,57.00149639400007]]],[[[-6.133821779999948,58.23970826300007],[-6.199747699999932,58.15911527600008],[-6.278494314999932,58.20054346400008],[-6.168585906999965,58.27910938900004],[-6.133821779999948,58.23970826300007]]],[[[-2.953140893999944,59.35798948000007],[-2.929539305999981,59.25825754300007],[-3.045717691999926,59.265119956000035],[-3.046251543999972,59.31551159800006],[-2.953140893999944,59.35798948000007]]],[[[-2.004928740999958,60.141362351000055],[-2.049540982999929,60.081243795000034],[-2.096104128999968,60.09932931900005],[-2.143407276999937,60.139794649000066],[-2.096104128999968,60.189836213000035],[-2.004928740999958,60.141362351000055]]],[[[-1.580759121999961,59.50926963200004],[-1.70414706899993,59.50076972000005],[-1.655280344999937,59.58307261700003],[-1.560818302999962,59.575397001000056],[-1.580759121999961,59.50926963200004]]],[[[-6.168352420999952,56.11682645700006],[-6.203082454999958,56.00242488400005],[-6.295837949999964,56.00921203900003],[-6.203082454999958,56.129022837000036],[-6.168352420999952,56.11682645700006]]],[[[-4.343407431999935,59.07589657800003],[-4.40303785499998,59.040491],[-4.475321175999966,59.053279402000044],[-4.447518784999943,59.119571215000065],[-4.360070992999965,59.12804633400003],[-4.343407431999935,59.07589657800003]]],[[[-6.095816226999943,56.87930165200004],[-6.163364170999955,56.85477963000005],[-6.239051940999957,56.88100237700007],[-6.128320750999933,56.967040792000034],[-6.095816226999943,56.87930165200004]]],[[[-2.759059118999971,59.129137178000065],[-2.800996046999956,59.129137178000065],[-2.828554288999953,59.213308365000046],[-2.768206348999968,59.25441751400007],[-2.72175812699993,59.129137178000065],[-2.759059118999971,59.129137178000065]]],[[[-2.916474497999957,58.82970727500003],[-2.928519029999961,58.740453356000046],[-2.98933137399996,58.75053907700004],[-3.017261781999935,58.79936450500003],[-2.972761617999936,58.86060218100005],[-2.916474497999957,58.82970727500003]]],[[[-2.495300825999948,59.21681677000004],[-2.584358102999943,59.21264319100004],[-2.599572470999931,59.22768726500004],[-2.61716032399994,59.28616963800005],[-2.584358102999943,59.30619881800004],[-2.554707521999944,59.312891928000056],[-2.495300825999948,59.21681677000004]]],[[[-2.584358102999943,59.050056346000076],[-2.642328796999948,59.049555370000064],[-2.628720155999929,59.121044072000075],[-2.584358102999943,59.13441080900003],[-2.545957213999941,59.137284151000074],[-2.526208584999949,59.09983601200008],[-2.584358102999943,59.050056346000076]]]]}},{"type":"Feature","properties":{"id":"GBR:UKN","name":"Northern Ireland (UK)"},"geometry":{"type":"MultiPolygon","coordinates":[[[[-5.976527499999975,55.056598499000074],[-5.963875282999936,54.984176407000064],[-5.707203469999968,54.79566106400006],[-5.868339499999934,54.68877049900004],[-5.912931499999956,54.648036999000055],[-5.855336,54.63376999900004],[-5.545097756999951,54.63044895400003],[-5.471434667999972,54.500607855000055],[-5.487859354999955,54.40545736900003],[-5.538059640999961,54.39444915800004],[-5.615233186999944,54.518799512000044],[-5.646038,54.45902999900005],[-5.56024920699997,54.34092925400006],[-5.613475383999969,54.25673836100003],[-5.843650981999929,54.22863017100008],[-5.926523871999962,54.09480258000008],[-6.040234364999947,54.03924123500008],[-6.268015499999933,54.102336999000045],[-6.594991,54.044673999000054],[-6.65434516199997,54.09137306000008],[-6.643909,54.18001949900008],[-6.79000393299998,54.213241518000075],[-6.864229499999965,54.33016549900003],[-7.023680297999931,54.40623325900003],[-7.18851049999995,54.33768099900004],[-7.16405475199997,54.23726336700008],[-7.301324019999981,54.13238808500006],[-7.611773009999979,54.14701449900008],[-7.847085935999928,54.228213234000066],[-8.102827109999964,54.40931488200005],[-8.132261244999938,54.44416445500008],[-8.00160718199993,54.532042180000076],[-7.703411499999959,54.60828799900003],[-7.81935679399993,54.70082011400007],[-7.613178853999955,54.75471984700005],[-7.256068499999969,55.06703499900004],[-7.149065499999949,55.04338049900008],[-7.050863383999967,55.055672350000066],[-6.991912708999962,55.11468553000003],[-6.936986851999961,55.18110286900003],[-6.478183242999933,55.24341906300003],[-6.207772514999931,55.21019481900004],[-6.095877248999955,55.20315247000008],[-6.035679699999946,55.11468553000003],[-5.976527499999975,55.056598499000074]]]]}}]}