{"type":"FeatureCollection","features":[{"type":"Feature","properties":{"id":"ITA:ITC1","name":"Piemonte"},"geometry":{"type":"MultiPolygon","coordinates":[[[[8.84291550000006,45.393840999000076],[8.694472867000059,45.30663252100004],[8.585793066000065,45.34981176800005],[8.51356,45.313278499000035],[8.547797500000058,45.16814749900004],[8.674460544000056,45.04578940300007],[8.900284198000065,45.01266987100007],[9.200074,44.68609949900008],[9.202995500000043,44.61347649900006],[9.134520917000032,44.575176499000065],[8.945225939000068,44.66790072800006],[8.889633667000055,44.56981415700005],[8.644384084000023,44.57841901900008],[8.576182,44.50920599900007],[8.261596,44.51942449900008],[8.252819500000044,44.52874049900004],[8.015629500000045,44.11067649900008],[7.771223081000073,44.13028884600004],[7.714236500000027,44.06151349900006],[7.602905948000057,44.142539776000035],[7.384291562000044,44.12332477500007],[7.036656494000056,44.23342831400004],[6.887428,44.36128699900007],[6.874576976000071,44.52313876100004],[6.948443,44.654741999000066],[7.065755,44.713464499000054],[7.008916138000075,44.83098541600003],[6.779271202000075,44.896757164000064],[6.630051,45.109856499000045],[7.096512554000071,45.23238481100003],[7.163023551000038,45.40355480900007],[7.104723,45.468454499000075],[7.518334825000068,45.58312911400003],[7.895811,45.59002799900003],[7.936649,45.72434049900005],[7.864076500000067,45.916750499000045],[7.87713750000006,45.92695499900003],[8.137053372000025,46.15367662600005],[8.109307792000038,46.26351071300007],[8.384717,46.45215849900006],[8.45770335800006,46.41959829900003],[8.463692503000061,46.25177830200005],[8.713936,46.09727199900004],[8.593811,45.82822499900004],[8.706896500000028,45.55831599900006],[8.84291550000006,45.393840999000076]]]]}},{"type":"Feature","properties":{"id":"ITA:ITC2","name":"Valle d’Aosta/Vallée d’Aoste"},"geometry":{"type":"MultiPolygon","coordinates":[[[[7.864076500000067,45.916750499000045],[7.936649,45.72434049900005],[7.895811,45.59002799900003],[7.518334825000068,45.58312911400003],[7.104723,45.468454499000075],[7.011856419000026,45.51195977000003],[6.980903918000024,45.62728599700006],[6.802368500000057,45.77856199900003],[7.044886,45.92241299900007],[7.153809005000028,45.86263154000005],[7.582431863000068,45.96836509700006],[7.864076500000067,45.916750499000045]]]]}},{"type":"Feature","properties":{"id":"ITA:ITC3","name":"Liguria"},"geometry":{"type":"MultiPolygon","coordinates":[[[[8.945225939000068,44.66790072800006],[9.134520917000032,44.575176499000065],[9.202995500000043,44.61347649900006],[9.493363,44.555858999000066],[9.479059500000062,44.40924049900008],[9.593380497000055,44.42448342900008],[9.686725500000023,44.36592199900008],[10.042801266000026,44.08751769500003],[10.018769500000076,44.04453599900006],[9.79990024700004,44.07143090200003],[9.511344,44.216675499000075],[9.134520917000032,44.36176935000003],[8.767808364000075,44.41939501100006],[8.63301,44.37980349900005],[8.274528437000072,44.12814546000004],[8.135351,43.93894049900007],[7.961853511000072,43.85355232400008],[7.529827,43.78400799900004],[7.522078972000031,43.88938936300008],[7.714236500000027,44.06151349900006],[7.771223081000073,44.13028884600004],[8.015629500000045,44.11067649900008],[8.252819500000044,44.52874049900004],[8.261596,44.51942449900008],[8.576182,44.50920599900007],[8.644384084000023,44.57841901900008],[8.889633667000055,44.56981415700005],[8.945225939000068,44.66790072800006]]]]}},{"type":"Feature","properties":{"id":"ITA:ITC4","name":"Lombardia"},"geometry":{"type":"MultiPolygon","coordinates":[[[[10.574305968000033,46.263417951000065],[10.466935184000022,45.99955462200006],[10.523249178000071,45.82106408800007],[10.840176500000041,45.83275849900008],[10.644357039000056,45.61092384300008],[10.654655500000047,45.415826999000046],[10.725780555000028,45.31283116700007],[11.042849483000055,45.122475148000035],[11.205502500000023,45.10948749900007],[11.207680616000061,45.05328071200006],[11.426765500000045,44.950075999000035],[11.246231500000022,44.95142799900003],[10.887909500000035,44.914265999000065],[10.698593307000067,44.969152429000076],[10.504344,44.92241799900006],[10.464030500000035,44.937171499000044],[10.083503,45.04395849900004],[9.891101500000048,45.13089799900007],[9.73058119500007,45.06642308600004],[9.548684500000036,45.13264849900003],[9.411635076000039,45.07107890300006],[9.311009872000056,44.94024123100007],[9.354794772000048,44.83098541600003],[9.296088213000075,44.70840604000006],[9.200074,44.68609949900008],[8.900284198000065,45.01266987100007],[8.674460544000056,45.04578940300007],[8.547797500000058,45.16814749900004],[8.51356,45.313278499000035],[8.585793066000065,45.34981176800005],[8.694472867000059,45.30663252100004],[8.84291550000006,45.393840999000076],[8.706896500000028,45.55831599900006],[8.593811,45.82822499900004],[8.713936,46.09727199900004],[8.829183034000039,46.06675776700007],[8.912147,45.830444999000065],[9.03837212600007,45.870540205000054],[9.029458326000054,46.021116203000076],[9.159377500000062,46.16960099900007],[9.24853150000007,46.233767999000065],[9.263467225000056,46.45321716500007],[9.317291698000076,46.49633010900004],[9.437979550000023,46.47947256200007],[9.566549596000073,46.305723853000075],[9.91198259500004,46.36999667900005],[10.094413261000057,46.240586360000066],[10.155469887000038,46.272071450000055],[10.129639791000045,46.400405619000026],[10.051469969000038,46.466916655000034],[10.106749462000039,46.58164222900007],[10.218221476000053,46.620700646000046],[10.452801,46.53068299900008],[10.622145500000045,46.44810199900007],[10.515751500000022,46.34322449900003],[10.574305968000033,46.263417951000065]]]]}},{"type":"Feature","properties":{"id":"ITA:ITF1","name":"Abruzzo"},"geometry":{"type":"MultiPolygon","coordinates":[[[[14.686983711000039,41.98488940400006],[14.485359,41.759622999000044],[14.378693922000025,41.868828292000046],[14.229757500000062,41.87705649900005],[14.135032555000066,41.752392892000046],[13.941038500000047,41.68794399900003],[13.424165628000026,41.82520409600005],[13.296299500000032,41.94858849900004],[13.192751420000036,41.98488940400006],[13.069663778000063,42.02804030300007],[13.030574500000057,42.11535299900004],[13.331387053000071,42.170019136000064],[13.297447333000036,42.219320777000064],[13.172886590000076,42.40026066400003],[13.14075839000003,42.44693084900007],[13.190687097000023,42.570643276000055],[13.39403150000004,42.59123399900005],[13.379525791000049,42.63237665100007],[13.357774500000062,42.69406999900008],[13.546640354000033,42.80375031700004],[13.91573150000005,42.89457699900004],[14.082262854000021,42.63237665100007],[14.146906500000057,42.53059649900007],[14.253960500000062,42.44479849900006],[14.326291165000043,42.40026066400003],[14.620142501000032,42.219320777000064],[14.692021386000022,42.17506112700005],[14.767382263000059,42.074715163000064],[14.686983711000039,41.98488940400006]]]]}},{"type":"Feature","properties":{"id":"ITA:ITF2","name":"Molise"},"geometry":{"type":"MultiPolygon","coordinates":[[[[15.138178500000038,41.92700749900007],[15.109710088000043,41.70411660700006],[15.057220459000064,41.66825522800008],[14.988751328000035,41.62147651300006],[14.953545062000046,41.597423280000044],[15.007655500000055,41.486356999000066],[14.5051,41.382461499000044],[14.378693922000025,41.44408425900008],[14.15087260200005,41.50091899600005],[14.057795819000034,41.40592987500003],[13.977928,41.46245399900005],[14.001038793000077,41.562744948000045],[13.941038500000047,41.68794399900003],[14.135032555000066,41.752392892000046],[14.229757500000062,41.87705649900005],[14.378693922000025,41.868828292000046],[14.485359,41.759622999000044],[14.686983711000039,41.98488940400006],[14.767382263000059,42.074715163000064],[14.920697106000034,42.017288747000066],[14.998744922000071,41.98488940400006],[15.138178500000038,41.92700749900007]]]]}},{"type":"Feature","properties":{"id":"ITA:ITF3","name":"Campania"},"geometry":{"type":"MultiPolygon","coordinates":[[[[14.378693922000025,41.44408425900008],[14.5051,41.382461499000044],[15.007655500000055,41.486356999000066],[15.149196500000073,41.28041249900008],[15.242373834000034,41.24293201100005],[15.265405604000023,41.11360151300005],[15.542921,41.05582349900004],[15.519173995000074,40.91176345700006],[15.335024500000031,40.83484399900004],[15.580868172000066,40.46252042000003],[15.78996496600007,40.26439505400003],[15.644945500000063,40.042790499000034],[15.564165480000042,40.069553625000026],[15.424239693000061,40.00313588900008],[15.348504760000026,40.006305971000074],[15.286818390000064,40.031013882000025],[15.248488549000058,40.08494114200005],[15.146223348000035,40.15571117400003],[15.039039769000055,40.17803718400006],[14.942275926000036,40.23018776600003],[14.926337256000068,40.271567384000036],[14.986442827000076,40.36264908700008],[14.987169523000034,40.401808380000034],[14.881647828000041,40.575598409000065],[14.78657275200004,40.65865078200005],[14.550611701000037,40.61552890300004],[14.46862,40.620201499000075],[14.396662549000041,40.74693819000004],[14.03213050000005,40.89883899900008],[13.760795500000029,41.223167999000054],[13.873718500000052,41.33829399900003],[13.977928,41.46245399900005],[14.057795819000034,41.40592987500003],[14.15087260200005,41.50091899600005],[14.378693922000025,41.44408425900008]]],[[[13.973993194000059,40.74871585500006],[13.93066820200005,40.68485723600003],[13.830026492000059,40.70448492700007],[13.845334343000047,40.770745230000045],[13.973993194000059,40.74871585500006]]]]}},{"type":"Feature","properties":{"id":"ITA:ITF4","name":"Puglia"},"geometry":{"type":"MultiPolygon","coordinates":[[[[16.542302500000062,41.229440999000076],[17.068666609000047,41.06954626000004],[17.388981,40.89186349900007],[17.981549426000072,40.65440986500005],[18.097453,40.515377999000066],[18.39357685500005,40.316198867000026],[18.496927842000048,40.145542814000066],[18.37106782500007,39.81376559700004],[18.06550694300006,39.92348330400006],[17.95831529000003,40.164282650000075],[17.763504500000067,40.295506999000054],[17.478771494000057,40.30919464300007],[17.110962624000024,40.51125799700003],[16.867264,40.39784549900003],[16.722480450000035,40.503736960000026],[16.72499,40.71381449900008],[16.554822562000027,40.758080945000074],[16.41225094600003,40.72174772900007],[16.244098500000064,40.83800849900007],[16.202532,40.91751099900006],[16.052839628000072,40.931612474000076],[16.011344660000077,41.05772003800007],[15.870311,41.13989999900008],[15.542921,41.05582349900004],[15.265405604000023,41.11360151300005],[15.242373834000034,41.24293201100005],[15.149196500000073,41.28041249900008],[15.007655500000055,41.486356999000066],[14.953545062000046,41.597423280000044],[14.988751328000035,41.62147651300006],[15.057220459000064,41.66825522800008],[15.109710088000043,41.70411660700006],[15.138178500000038,41.92700749900007],[16.129286587000024,41.91215790200005],[16.169950034000067,41.77293981300005],[16.02277179300006,41.66825522800008],[15.957004622000056,41.62147651300006],[15.905264228000021,41.584674730000074],[16.02473850000007,41.425590499000066],[16.542302500000062,41.229440999000076]]],[[[15.602049837000038,42.15499392800007],[15.511567440000022,42.08880159700004],[15.469721509000067,42.176720972000055],[15.542237539000041,42.20573072800005],[15.602049837000038,42.15499392800007]]]]}},{"type":"Feature","properties":{"id":"ITA:ITF5","name":"Basilicata"},"geometry":{"type":"MultiPolygon","coordinates":[[[[16.244098500000064,40.83800849900007],[16.41225094600003,40.72174772900007],[16.554822562000027,40.758080945000074],[16.72499,40.71381449900008],[16.722480450000035,40.503736960000026],[16.867264,40.39784549900003],[16.644317,40.11909599900008],[16.44282842900003,40.13096651200004],[16.398881,40.05539999900003],[16.29854428300007,39.93075773700008],[16.06790722200003,39.906344182000055],[15.878548068000043,40.00039338500005],[15.755958500000077,39.92349599900007],[15.644945500000063,40.042790499000034],[15.78996496600007,40.26439505400003],[15.580868172000066,40.46252042000003],[15.335024500000031,40.83484399900004],[15.519173995000074,40.91176345700006],[15.542921,41.05582349900004],[15.870311,41.13989999900008],[16.011344660000077,41.05772003800007],[16.052839628000072,40.931612474000076],[16.202532,40.91751099900006],[16.244098500000064,40.83800849900007]]]]}},{"type":"Feature","properties":{"id":"ITA:ITF6","name":"Calabria"},"geometry":{"type":"MultiPolygon","coordinates":[[[[16.60967708900006,39.95148392100003],[16.50106451700003,39.803417368000055],[16.534114980000027,39.67718674500003],[17.025064500000042,39.48357849900003],[17.139428719000023,39.388995944000044],[17.14040145200005,39.18798245900007],[17.14740185200003,38.94066528600007],[16.890732,38.92712849900005],[16.570595480000065,38.76028110900006],[16.582084500000065,38.469790499000055],[16.211430603000053,38.176890197000034],[16.068680520000044,37.94237162400003],[15.744588423000039,37.92817650100005],[15.646059062000063,38.01572603400007],[15.648793901000033,38.207958235000035],[15.811022542000046,38.308865731000026],[15.918956,38.50676149900005],[15.860656634000065,38.65617496600004],[16.134658148000028,38.72948753500003],[16.213753500000053,38.81043999900004],[16.205409469000074,38.91181790100006],[16.093153,39.04874299900007],[16.062081154000055,39.18798245900007],[16.008907316000034,39.40717854500008],[15.829136324000046,39.653607169000054],[15.755958500000077,39.92349599900007],[15.878548068000043,40.00039338500005],[16.06790722200003,39.906344182000055],[16.29854428300007,39.93075773700008],[16.398881,40.05539999900003],[16.44282842900003,40.13096651200004],[16.644317,40.11909599900008],[16.60967708900006,39.95148392100003]]]]}},{"type":"Feature","properties":{"id":"ITA:ITG1","name":"Sicilia"},"geometry":{"type":"MultiPolygon","coordinates":[[[[15.541329587000064,38.14594939500006],[15.258082500000057,37.80722399900003],[15.095531137000023,37.47542899200005],[15.091499,37.35770849900007],[15.225743186000045,37.26173543300007],[15.204330821000042,37.18079338000007],[15.297818002000042,37.049249444000054],[15.124956227000041,36.856880501000035],[15.116609723000067,36.68094427600005],[15.000358,36.70284749900003],[14.527877172000046,36.793069622000075],[14.337594500000023,37.00197999900007],[14.036207,37.10602799900005],[13.685783443000048,37.18877162900003],[12.896496,37.57711849900005],[12.677187520000075,37.575972775000025],[12.493726937000076,37.68834819500006],[12.44171250900007,37.79523122000006],[12.51029621400005,38.01359783800007],[12.752261543000031,38.15318440400006],[12.877465802000074,38.04372702100005],[12.977262500000052,38.04020599900008],[13.09705427700004,38.17131703300004],[13.302888688000053,38.20947879300007],[13.72887527100005,37.98173442500007],[14.183486,38.01939649900004],[14.378693922000025,38.01870674000003],[14.760333023000044,38.15547098600007],[15.104117483000039,38.131079045000035],[15.562728538000044,38.278890337000064],[15.541329587000064,38.14594939500006]]],[[[14.896071880000022,38.608687445000044],[14.894771124000044,38.53287986300006],[14.973534696000058,38.53318419200008],[14.952516185000036,38.44195479700005],[14.784634646000029,38.56329773400006],[14.821404204000032,38.60823566700003],[14.896071880000022,38.608687445000044]]],[[[12.052278009000077,36.747923429000025],[11.993284935000077,36.733870015000036],[11.921238233000054,36.81720804200006],[11.950738394000041,36.84242070500005],[12.054544614000065,36.79968421600006],[12.052278009000077,36.747923429000025]]],[[[12.912189332000025,35.90690858600004],[12.924967580000043,35.82055019200004],[12.834468453000056,35.82127696600003],[12.787921382000036,35.87721346100005],[12.912189332000025,35.90690858600004]]]]}},{"type":"Feature","properties":{"id":"ITA:ITG2","name":"Sardegna"},"geometry":{"type":"MultiPolygon","coordinates":[[[[9.526827403000027,41.02261319300004],[9.74937,40.658096999000065],[9.808016708000025,40.49027696500008],[9.626527,40.22487699900006],[9.720155422000062,40.06127165400005],[9.651118500000052,39.54932399900008],[9.577879325000026,39.17538715500007],[9.547348445000068,39.13827329500003],[9.464770546000068,39.12622185600003],[9.44608024400003,39.13562503500003],[9.367046753000068,39.17538715500007],[9.221632174000035,39.22413947600006],[9.143743564000033,39.191161462000025],[9.08801036400007,39.20819468700006],[9.042934940000066,39.17538715500007],[9.019720024000037,39.01277760100004],[8.908640852000076,38.919443872000045],[8.876152680000075,38.89214584500007],[8.632236290000037,38.91035081700005],[8.612392,38.95778799900006],[8.521074113000054,39.04773023700005],[8.40537033000004,38.98368669100006],[8.36798124400002,39.06901570500003],[8.403200508000054,39.17538715500007],[8.393,39.446529499000064],[8.457508332000032,39.70718677200006],[8.50225450000005,39.71300699900007],[8.533507693000047,39.86442327800006],[8.407620936000058,39.93709013200004],[8.47502236300005,40.25114707600005],[8.399809,40.407568499000035],[8.307892039000023,40.56808691800006],[8.16054701400003,40.59771165300003],[8.21345404300007,40.85871342200005],[8.513724308000064,40.82679242100005],[8.802688500000045,40.93104799900004],[8.876152680000075,41.01507707900004],[9.202974758000039,41.240868575000036],[9.517086801000062,41.13786370400004],[9.526827403000027,41.02261319300004]]],[[[8.332213037000031,39.19881549300004],[8.28903112200004,39.06936245900005],[8.224863835000065,39.13484777000008],[8.253970827000046,39.19881549300004],[8.332213037000031,39.19881549300004]]],[[[8.267375086000072,40.965015813000036],[8.229879037000046,40.87714081000007],[8.142977465000058,40.93315641600003],[8.19863870100005,40.99888034600008],[8.267375086000072,40.965015813000036]]],[[[8.35605311200004,41.04551222400005],[8.288374580000038,41.04470169500007],[8.247295407000024,41.105619743000034],[8.322420658000055,41.143406653000056],[8.374593856000047,41.09139116400007],[8.35605311200004,41.04551222400005]]]]}},{"type":"Feature","properties":{"id":"ITA:ITH3","name":"Veneto"},"geometry":{"type":"MultiPolygon","coordinates":[[[[12.731393,46.63428799900004],[12.713582969000072,46.55201597100006],[12.498703,46.41222249900005],[12.350487903000044,46.27726596300005],[12.479875723000077,46.13986372200003],[12.400534500000049,46.04199649900005],[12.661673,45.792440999000064],[12.979058,45.83404899900006],[13.098785500000076,45.644532999000035],[12.675470603000065,45.51502981900006],[12.50650001200006,45.533188221000046],[12.493558776000043,45.473321568000074],[12.349637920000077,45.39768606700005],[12.25344375900005,45.41172656100008],[12.132562,45.30037049900005],[12.200494,45.257336999000074],[12.330572,45.16055049900007],[12.310361355000055,45.071281783000074],[12.463480086000061,44.94900893700003],[12.399056500000029,44.79261549900008],[12.34605965000003,44.83098541600003],[12.254945126000052,44.93367530100005],[12.028236227000036,44.97876923100006],[11.629364119000059,44.90215731500007],[11.426765500000045,44.950075999000035],[11.207680616000061,45.05328071200006],[11.205502500000023,45.10948749900007],[11.042849483000055,45.122475148000035],[10.725780555000028,45.31283116700007],[10.654655500000047,45.415826999000046],[10.644357039000056,45.61092384300008],[10.840176500000041,45.83275849900008],[10.919835682000041,45.70616200500007],[11.138337500000034,45.697088499000074],[11.39061844300005,45.97687706800008],[11.684318500000074,45.98407799900008],[11.70571037600007,46.07991705100005],[11.924571871000069,46.187828901000046],[11.822532169000056,46.31185540900003],[11.828336500000034,46.50891449900007],[11.995235104000074,46.55532031900003],[12.080416742000068,46.656531759000075],[12.336439556000073,46.62638885600006],[12.477924,46.679835499000035],[12.690635,46.65697199900006],[12.731393,46.63428799900004]]]]}},{"type":"Feature","properties":{"id":"ITA:ITH4","name":"Friuli-Venezia Giulia"},"geometry":{"type":"MultiPolygon","coordinates":[[[[13.622900572000049,45.96372302100008],[13.597145,45.81952249900007],[13.596243,45.80793749900005],[13.776365062000025,45.74910866700003],[13.898382670000046,45.63599784000007],[13.840285203000064,45.59057028700005],[13.722140357000058,45.59496424900004],[13.725561052000046,45.690265056000044],[13.579783,45.786951499000054],[13.406493500000067,45.725174999000046],[13.141131242000029,45.76102655700004],[13.098785500000076,45.644532999000035],[12.979058,45.83404899900006],[12.661673,45.792440999000064],[12.400534500000049,46.04199649900005],[12.479875723000077,46.13986372200003],[12.350487903000044,46.27726596300005],[12.498703,46.41222249900005],[12.713582969000072,46.55201597100006],[12.731393,46.63428799900004],[13.504249500000071,46.56630399900007],[13.714185,46.522703499000045],[13.684032,46.43747249900008],[13.400869882000052,46.313733067000044],[13.432450440000025,46.24030066900008],[13.64318901200005,46.16533505800004],[13.496939,46.05133499900006],[13.517212869000048,45.98445095000005],[13.622900572000049,45.96372302100008]]]]}},{"type":"Feature","properties":{"id":"ITA:ITH5","name":"Emilia-Romagna"},"geometry":{"type":"MultiPolygon","coordinates":[[[[9.548684500000036,45.13264849900003],[9.73058119500007,45.06642308600004],[9.891101500000048,45.13089799900007],[10.083503,45.04395849900004],[10.464030500000035,44.937171499000044],[10.504344,44.92241799900006],[10.698593307000067,44.969152429000076],[10.887909500000035,44.914265999000065],[11.246231500000022,44.95142799900003],[11.426765500000045,44.950075999000035],[11.629364119000059,44.90215731500007],[12.028236227000036,44.97876923100006],[12.254945126000052,44.93367530100005],[12.34605965000003,44.83098541600003],[12.399056500000029,44.79261549900008],[12.283248330000049,44.820570230000044],[12.269892,44.630007499000044],[12.384282,44.22472649900004],[12.450349,44.16218949900008],[12.750684840000076,43.96966888000003],[12.649646267000037,43.835730960000035],[12.493956,43.91554649900007],[12.500402331000032,43.98084679500005],[12.417586270000072,43.95064133200003],[12.4177,43.89902999900005],[12.283797500000048,43.764898999000025],[12.107464,43.75375349900003],[11.710189,43.87743049900007],[11.673270256000023,43.98627065900007],[11.715906500000074,44.12254049900008],[11.524959500000023,44.157639999000025],[11.405658194000068,44.21814302800004],[11.202439500000025,44.10072099900003],[11.049449,44.09022999900003],[10.814787,44.11617449900007],[10.693833186000063,44.15573451300003],[10.624078,44.12035149900004],[10.470149,44.22604099900008],[10.253875,44.26856699900003],[10.142054500000029,44.353852999000026],[9.89856723500003,44.46423316100004],[9.686725500000023,44.36592199900008],[9.593380497000055,44.42448342900008],[9.479059500000062,44.40924049900008],[9.493363,44.555858999000066],[9.202995500000043,44.61347649900006],[9.200074,44.68609949900008],[9.296088213000075,44.70840604000006],[9.354794772000048,44.83098541600003],[9.311009872000056,44.94024123100007],[9.411635076000039,45.07107890300006],[9.548684500000036,45.13264849900003]]]]}},{"type":"Feature","properties":{"id":"ITA:ITI1","name":"Toscana"},"geometry":{"type":"MultiPolygon","coordinates":[[[[10.470149,44.22604099900008],[10.624078,44.12035149900004],[10.693833186000063,44.15573451300003],[10.814787,44.11617449900007],[11.049449,44.09022999900003],[11.202439500000025,44.10072099900003],[11.405658194000068,44.21814302800004],[11.524959500000023,44.157639999000025],[11.715906500000074,44.12254049900008],[11.673270256000023,43.98627065900007],[11.710189,43.87743049900007],[12.107464,43.75375349900003],[12.283797500000048,43.764898999000025],[12.308277231000034,43.71447909300008],[12.213856,43.610824499000046],[12.144707436000033,43.51168672500006],[12.08025680000003,43.41928433600003],[12.135841115000062,43.27220649800006],[11.96126350000003,43.16689049900003],[11.933317,42.86932999900006],[11.89498750000007,42.83465349900007],[11.746037,42.78574249900004],[11.782282684000052,42.72527278900003],[11.742376464000074,42.63237665100007],[11.590988250000066,42.539876538000044],[11.597534715000052,42.44574072300003],[11.498920605000023,42.40026066400003],[11.44993850000003,42.37767049900003],[11.151254713000071,42.406320393000044],[11.146672619000071,42.530023776000064],[11.053747129000044,42.63237665100007],[10.95894134100007,42.723271546000035],[10.788805917000047,42.78835386600008],[10.705672500000048,42.941864499000076],[10.512616196000067,42.958121669000036],[10.505962252000074,43.26158600800005],[10.345042320000061,43.51168672500006],[10.299847,43.58192899900007],[10.258118,43.815146999000035],[10.143476,43.97542049900005],[10.018769500000076,44.04453599900006],[10.042801266000026,44.08751769500003],[9.686725500000023,44.36592199900008],[9.89856723500003,44.46423316100004],[10.142054500000029,44.353852999000026],[10.253875,44.26856699900003],[10.470149,44.22604099900008]]],[[[10.448189600000035,42.849053533000074],[10.425790260000042,42.72018650900003],[10.359712896000076,42.757643278000046],[10.13081943800006,42.73127312300005],[10.096329283000046,42.78412228500008],[10.181493072000023,42.812403876000076],[10.241348002000052,42.78807382400004],[10.26956169600004,42.82678106800006],[10.370137489000058,42.81908443200007],[10.417281235000075,42.87522872200003],[10.448189600000035,42.849053533000074]]],[[[10.97451264600005,42.358832103000054],[10.886255573000028,42.29449683400003],[10.837837961000048,42.35677054000007],[10.888639815000033,42.40110437200008],[10.925869199000033,42.40110437200008],[10.97451264600005,42.358832103000054]]],[[[9.88632264000006,43.04649501200004],[9.823993098000074,42.98172683000007],[9.765650224000069,43.04030976400003],[9.831278519000023,43.11584587400006],[9.88632264000006,43.04649501200004]]]]}},{"type":"Feature","properties":{"id":"ITA:ITI2","name":"Umbria"},"geometry":{"type":"MultiPolygon","coordinates":[[[[12.423986756000033,43.51168672500006],[12.623503482000046,43.43243213800008],[12.767457,43.45982999900008],[12.862358,43.21123249900006],[12.918553372000076,42.96247264200008],[13.162698243000023,42.84976037000007],[13.235287500000027,42.86766299900006],[13.189226,42.733565499000065],[13.11909754100003,42.64615605600005],[13.015886326000043,42.63237665100007],[12.896352,42.61641799900008],[12.600315284000033,42.41404315900007],[12.488074500000039,42.398656499000026],[12.211869530000058,42.63237665100007],[11.976683757000046,42.69503358600008],[11.89498750000007,42.83465349900007],[11.933317,42.86932999900006],[11.96126350000003,43.16689049900003],[12.135841115000062,43.27220649800006],[12.08025680000003,43.41928433600003],[12.144707436000033,43.51168672500006],[12.213856,43.610824499000046],[12.340160780000076,43.59731765400005],[12.387485317000028,43.52618629300008],[12.423986756000033,43.51168672500006]]]]}},{"type":"Feature","properties":{"id":"ITA:ITI3","name":"Marche"},"geometry":{"type":"MultiPolygon","coordinates":[[[[12.750684840000076,43.96966888000003],[13.172615,43.75034599900005],[13.56054640700006,43.59448892300003],[13.61665548600007,43.51168672500006],[13.642096500000036,43.47414249900004],[13.74297050000007,43.29414699900008],[13.849453,43.066659499000025],[13.91573150000005,42.89457699900004],[13.546640354000033,42.80375031700004],[13.357774500000062,42.69406999900008],[13.189226,42.733565499000065],[13.235287500000027,42.86766299900006],[13.162698243000023,42.84976037000007],[12.918553372000076,42.96247264200008],[12.862358,43.21123249900006],[12.767457,43.45982999900008],[12.623503482000046,43.43243213800008],[12.423986756000033,43.51168672500006],[12.387485317000028,43.52618629300008],[12.340160780000076,43.59731765400005],[12.213856,43.610824499000046],[12.308277231000034,43.71447909300008],[12.283797500000048,43.764898999000025],[12.4177,43.89902999900005],[12.493956,43.91554649900007],[12.649646267000037,43.835730960000035],[12.750684840000076,43.96966888000003]]]]}},{"type":"Feature","properties":{"id":"ITA:ITI4","name":"Lazio"},"geometry":{"type":"MultiPolygon","coordinates":[[[[12.211869530000058,42.63237665100007],[12.488074500000039,42.398656499000026],[12.600315284000033,42.41404315900007],[12.896352,42.61641799900008],[13.015886326000043,42.63237665100007],[13.11909754100003,42.64615605600005],[13.189226,42.733565499000065],[13.357774500000062,42.69406999900008],[13.379525791000049,42.63237665100007],[13.39403150000004,42.59123399900005],[13.190687097000023,42.570643276000055],[13.14075839000003,42.44693084900007],[13.172886590000076,42.40026066400003],[13.297447333000036,42.219320777000064],[13.331387053000071,42.170019136000064],[13.030574500000057,42.11535299900004],[13.069663778000063,42.02804030300007],[13.192751420000036,41.98488940400006],[13.296299500000032,41.94858849900004],[13.424165628000026,41.82520409600005],[13.941038500000047,41.68794399900003],[14.001038793000077,41.562744948000045],[13.977928,41.46245399900005],[13.873718500000052,41.33829399900003],[13.760795500000029,41.223167999000054],[13.291915442000061,41.29072174500004],[13.065405397000063,41.24055056700007],[12.773321500000065,41.41626399900008],[12.611195856000052,41.468315663000055],[12.428865254000073,41.62147651300006],[12.37317745100006,41.66825522800008],[11.996239742000057,41.98488940400006],[11.957669888000055,42.017288747000066],[11.834626996000054,42.04329776700007],[11.733844,42.15805899900005],[11.688960357000042,42.219320777000064],[11.643728294000027,42.281058115000064],[11.44993850000003,42.37767049900003],[11.498920605000023,42.40026066400003],[11.597534715000052,42.44574072300003],[11.590988250000066,42.539876538000044],[11.742376464000074,42.63237665100007],[11.782282684000052,42.72527278900003],[11.746037,42.78574249900004],[11.89498750000007,42.83465349900007],[11.976683757000046,42.69503358600008],[12.211869530000058,42.63237665100007]],[[12.362367999000071,41.88427904900004],[12.391143416000034,41.86899705500008],[12.51864517200005,41.878445604000035],[12.48974965900004,41.95472927900005],[12.432672808000063,41.94016773200008],[12.362367999000071,41.88427904900004]]]]}},{"type":"Feature","properties":{"id":"ITA:ITH12","name":"Trentino-Alto Adige / Südtirol"},"geometry":{"type":"MultiPolygon","coordinates":[[[[12.24074550000006,47.06916849900006],[12.143110025000055,46.99888240800004],[12.162927552000042,46.91671685400007],[12.477924,46.679835499000035],[12.336439556000073,46.62638885600006],[12.080416742000068,46.656531759000075],[11.995235104000074,46.55532031900003],[11.828336500000034,46.50891449900007],[11.681754647000048,46.49578748300007],[11.555906313000037,46.36878543500006],[11.237350161000052,46.245517164000034],[11.166942980000044,46.28948567300006],[11.213001742000074,46.426462738000055],[11.168134660000021,46.50124330300008],[10.622145500000045,46.44810199900007],[10.452801,46.53068299900008],[10.468958716000031,46.60003426000003],[10.398051235000025,46.68038170400007],[10.469651500000055,46.85490899900003],[10.664640703000032,46.86334514500004],[10.993504047000044,46.77015294500006],[11.164281500000072,46.96572249900004],[11.627199500000074,47.01329899900003],[11.774589671000058,46.98302185600005],[12.136014,47.08066749900007],[12.24074550000006,47.06916849900006]]],[[[11.684318500000074,45.98407799900008],[11.39061844300005,45.97687706800008],[11.138337500000034,45.697088499000074],[10.919835682000041,45.70616200500007],[10.840176500000041,45.83275849900008],[10.523249178000071,45.82106408800007],[10.466935184000022,45.99955462200006],[10.574305968000033,46.263417951000065],[10.515751500000022,46.34322449900003],[10.622145500000045,46.44810199900007],[11.168134660000021,46.50124330300008],[11.213001742000074,46.426462738000055],[11.166942980000044,46.28948567300006],[11.237350161000052,46.245517164000034],[11.555906313000037,46.36878543500006],[11.681754647000048,46.49578748300007],[11.828336500000034,46.50891449900007],[11.822532169000056,46.31185540900003],[11.924571871000069,46.187828901000046],[11.70571037600007,46.07991705100005],[11.684318500000074,45.98407799900008]]]]}}]}